<?xml version='1.0' encoding='utf-8'?>
<gpx version="1.1" creator="Navo candidate audit" xmlns="http://www.topografix.com/GPX/1/1">
  <metadata>
    <name>ABC OSM candidate — unverified, disconnected</name>
    <desc>© OpenStreetMap contributors, ODbL 1.0. Each original way is a separate segment; no bridges or elevations generated. Not navigation-ready.</desc>
    <link href="https://www.openstreetmap.org/relation/17548991" />
  </metadata>
  <trk>
    <name>Annapurna Base Camp Trek — candidate</name>
    <trkseg>
      <trkpt lat="28.4063366" lon="83.821842" />
      <trkpt lat="28.407529" lon="83.8242739" />
    </trkseg>
    <trkseg>
      <trkpt lat="28.407529" lon="83.8242739" />
      <trkpt lat="28.4075677" lon="83.8244063" />
      <trkpt lat="28.4075562" lon="83.8244743" />
      <trkpt lat="28.4074999" lon="83.8245679" />
      <trkpt lat="28.4074223" lon="83.8247108" />
      <trkpt lat="28.4073292" lon="83.8248943" />
      <trkpt lat="28.4073547" lon="83.825009" />
      <trkpt lat="28.4074279" lon="83.8250945" />
      <trkpt lat="28.4075812" lon="83.8250799" />
      <trkpt lat="28.4075824" lon="83.8250546" />
      <trkpt lat="28.4075234" lon="83.8249862" />
      <trkpt lat="28.4075208" lon="83.824922" />
      <trkpt lat="28.4075678" lon="83.8248213" />
      <trkpt lat="28.4076379" lon="83.8248521" />
      <trkpt lat="28.4076756" lon="83.8248843" />
      <trkpt lat="28.4077656" lon="83.8248744" />
      <trkpt lat="28.4078819" lon="83.8248167" />
      <trkpt lat="28.4080752" lon="83.8248226" />
      <trkpt lat="28.408084" lon="83.824765" />
      <trkpt lat="28.4079887" lon="83.8247491" />
      <trkpt lat="28.4080114" lon="83.8246296" />
      <trkpt lat="28.4081849" lon="83.8244083" />
      <trkpt lat="28.4083327" lon="83.8242526" />
      <trkpt lat="28.4088934" lon="83.8241032" />
      <trkpt lat="28.4090475" lon="83.8240412" />
      <trkpt lat="28.4091558" lon="83.8239405" />
      <trkpt lat="28.4093103" lon="83.8237882" />
    </trkseg>
    <trkseg>
      <trkpt lat="28.4093283" lon="83.8240286" />
      <trkpt lat="28.4093103" lon="83.8237882" />
    </trkseg>
    <trkseg>
      <trkpt lat="28.4099497" lon="83.8242065" />
      <trkpt lat="28.4097871" lon="83.8240219" />
      <trkpt lat="28.4096977" lon="83.8239075" />
      <trkpt lat="28.409651" lon="83.8238533" />
      <trkpt lat="28.4096007" lon="83.8238554" />
      <trkpt lat="28.4095695" lon="83.8238477" />
      <trkpt lat="28.4094897" lon="83.8238881" />
      <trkpt lat="28.4094352" lon="83.8239432" />
      <trkpt lat="28.4093283" lon="83.8240286" />
    </trkseg>
    <trkseg>
      <trkpt lat="28.4110551" lon="83.8217286" />
      <trkpt lat="28.4110355" lon="83.8218532" />
      <trkpt lat="28.4110032" lon="83.8219998" />
      <trkpt lat="28.4109985" lon="83.8220639" />
      <trkpt lat="28.4110687" lon="83.8222561" />
      <trkpt lat="28.4109777" lon="83.8222238" />
      <trkpt lat="28.4110254" lon="83.822329" />
      <trkpt lat="28.4110034" lon="83.8223546" />
      <trkpt lat="28.4109593" lon="83.8223639" />
      <trkpt lat="28.4108458" lon="83.822378" />
      <trkpt lat="28.4107034" lon="83.8225287" />
      <trkpt lat="28.410536" lon="83.822758" />
      <trkpt lat="28.4103406" lon="83.8229061" />
      <trkpt lat="28.4102518" lon="83.8230658" />
      <trkpt lat="28.4102084" lon="83.823243" />
      <trkpt lat="28.4100688" lon="83.8233716" />
      <trkpt lat="28.4100374" lon="83.823484" />
      <trkpt lat="28.4100312" lon="83.8235552" />
      <trkpt lat="28.4100429" lon="83.8236833" />
      <trkpt lat="28.4099926" lon="83.8237919" />
      <trkpt lat="28.4100123" lon="83.8239292" />
      <trkpt lat="28.4099595" lon="83.824036" />
      <trkpt lat="28.4099497" lon="83.8242065" />
    </trkseg>
    <trkseg>
      <trkpt lat="28.4114304" lon="83.8217887" />
      <trkpt lat="28.4114008" lon="83.8216791" />
      <trkpt lat="28.4113795" lon="83.8215905" />
      <trkpt lat="28.4113111" lon="83.8215128" />
      <trkpt lat="28.4112828" lon="83.821443" />
      <trkpt lat="28.4113512" lon="83.8213491" />
      <trkpt lat="28.4114008" lon="83.821266" />
      <trkpt lat="28.4113536" lon="83.8211855" />
      <trkpt lat="28.4112875" lon="83.8210756" />
      <trkpt lat="28.4112356" lon="83.8210165" />
      <trkpt lat="28.4111743" lon="83.8210729" />
      <trkpt lat="28.4111554" lon="83.8211909" />
      <trkpt lat="28.4111035" lon="83.821317" />
      <trkpt lat="28.4110782" lon="83.821418" />
      <trkpt lat="28.4110686" lon="83.8214974" />
      <trkpt lat="28.4110516" lon="83.8216576" />
      <trkpt lat="28.4110551" lon="83.8217286" />
    </trkseg>
    <trkseg>
      <trkpt lat="28.4122281" lon="83.8197208" />
      <trkpt lat="28.4122253" lon="83.819772" />
      <trkpt lat="28.4120832" lon="83.819752" />
      <trkpt lat="28.4120303" lon="83.819749" />
      <trkpt lat="28.4120271" lon="83.8198176" />
      <trkpt lat="28.4119964" lon="83.8198229" />
      <trkpt lat="28.4119576" lon="83.8198197" />
      <trkpt lat="28.4119874" lon="83.8198777" />
      <trkpt lat="28.4119233" lon="83.8198551" />
      <trkpt lat="28.411905" lon="83.819885" />
      <trkpt lat="28.4119041" lon="83.8199211" />
      <trkpt lat="28.4119329" lon="83.8199649" />
      <trkpt lat="28.4120142" lon="83.8199948" />
      <trkpt lat="28.4121283" lon="83.8201025" />
      <trkpt lat="28.4120028" lon="83.8201651" />
      <trkpt lat="28.4121175" lon="83.8202113" />
      <trkpt lat="28.4120289" lon="83.8202588" />
      <trkpt lat="28.4121138" lon="83.8203145" />
      <trkpt lat="28.4120205" lon="83.8203271" />
      <trkpt lat="28.4121115" lon="83.8204095" />
      <trkpt lat="28.4120271" lon="83.8204412" />
      <trkpt lat="28.4118776" lon="83.8204741" />
      <trkpt lat="28.4119679" lon="83.8206247" />
      <trkpt lat="28.4120259" lon="83.8206477" />
      <trkpt lat="28.4120524" lon="83.8206975" />
      <trkpt lat="28.4119541" lon="83.8207114" />
      <trkpt lat="28.412089" lon="83.8208308" />
      <trkpt lat="28.4120141" lon="83.8208757" />
      <trkpt lat="28.4118868" lon="83.8209023" />
      <trkpt lat="28.4119445" lon="83.8209266" />
      <trkpt lat="28.4119461" lon="83.8209719" />
      <trkpt lat="28.4118191" lon="83.82113" />
      <trkpt lat="28.4117584" lon="83.821145" />
      <trkpt lat="28.4117389" lon="83.8212623" />
      <trkpt lat="28.4116815" lon="83.8213082" />
      <trkpt lat="28.4116527" lon="83.8213962" />
      <trkpt lat="28.4116738" lon="83.8214349" />
      <trkpt lat="28.4116579" lon="83.8214618" />
      <trkpt lat="28.411667" lon="83.8215145" />
      <trkpt lat="28.4116425" lon="83.8215543" />
      <trkpt lat="28.4116013" lon="83.821616" />
      <trkpt lat="28.4115204" lon="83.8217644" />
      <trkpt lat="28.4114304" lon="83.8217887" />
    </trkseg>
    <trkseg>
      <trkpt lat="28.4141119" lon="83.8186719" />
      <trkpt lat="28.413997" lon="83.8187576" />
      <trkpt lat="28.4139439" lon="83.8188748" />
      <trkpt lat="28.4138995" lon="83.8189382" />
      <trkpt lat="28.4137999" lon="83.8187386" />
      <trkpt lat="28.4137457" lon="83.8185462" />
      <trkpt lat="28.4137429" lon="83.8184044" />
      <trkpt lat="28.4136664" lon="83.8184644" />
      <trkpt lat="28.4136394" lon="83.8183678" />
      <trkpt lat="28.4135831" lon="83.8184049" />
      <trkpt lat="28.4135542" lon="83.818272" />
      <trkpt lat="28.4134556" lon="83.8184054" />
      <trkpt lat="28.4134008" lon="83.8185506" />
      <trkpt lat="28.4132838" lon="83.8187618" />
      <trkpt lat="28.413271" lon="83.8187595" />
      <trkpt lat="28.4132686" lon="83.8187119" />
      <trkpt lat="28.4132547" lon="83.8186787" />
      <trkpt lat="28.4132023" lon="83.8187947" />
      <trkpt lat="28.4131224" lon="83.818768" />
      <trkpt lat="28.413071" lon="83.8188761" />
      <trkpt lat="28.4130014" lon="83.8190419" />
      <trkpt lat="28.4129188" lon="83.819029" />
      <trkpt lat="28.4128835" lon="83.8189982" />
      <trkpt lat="28.4128162" lon="83.8189261" />
      <trkpt lat="28.4127974" lon="83.8189673" />
      <trkpt lat="28.4128008" lon="83.8191278" />
      <trkpt lat="28.4127407" lon="83.8190854" />
      <trkpt lat="28.4126615" lon="83.8189222" />
      <trkpt lat="28.4126346" lon="83.8190143" />
      <trkpt lat="28.4126204" lon="83.81908" />
      <trkpt lat="28.4126411" lon="83.8191634" />
      <trkpt lat="28.412657" lon="83.8192101" />
      <trkpt lat="28.4126363" lon="83.8192249" />
      <trkpt lat="28.4125874" lon="83.8192195" />
      <trkpt lat="28.4125251" lon="83.8192445" />
      <trkpt lat="28.4124482" lon="83.8192651" />
      <trkpt lat="28.4123504" lon="83.8193094" />
      <trkpt lat="28.4122678" lon="83.8193093" />
      <trkpt lat="28.4122289" lon="83.8193187" />
      <trkpt lat="28.4122113" lon="83.8193722" />
      <trkpt lat="28.4122265" lon="83.819438" />
      <trkpt lat="28.4122017" lon="83.8195024" />
      <trkpt lat="28.4122028" lon="83.8195252" />
      <trkpt lat="28.4121982" lon="83.8195692" />
      <trkpt lat="28.4121887" lon="83.8195937" />
      <trkpt lat="28.4121899" lon="83.8196593" />
      <trkpt lat="28.4122281" lon="83.8197208" />
    </trkseg>
    <trkseg>
      <trkpt lat="28.4146451" lon="83.8190055" />
      <trkpt lat="28.4144361" lon="83.8188639" />
      <trkpt lat="28.4143537" lon="83.8188101" />
      <trkpt lat="28.414291" lon="83.818794" />
      <trkpt lat="28.4142103" lon="83.8187484" />
      <trkpt lat="28.4141458" lon="83.8187408" />
      <trkpt lat="28.4141119" lon="83.8186719" />
    </trkseg>
    <trkseg>
      <trkpt lat="28.4146451" lon="83.8190055" />
      <trkpt lat="28.414879" lon="83.8190024" />
      <trkpt lat="28.4150974" lon="83.8190029" />
      <trkpt lat="28.4152862" lon="83.8190719" />
      <trkpt lat="28.4154182" lon="83.8191296" />
      <trkpt lat="28.4154985" lon="83.8192535" />
    </trkseg>
    <trkseg>
      <trkpt lat="28.4180348" lon="83.818306" />
      <trkpt lat="28.41802" lon="83.8183712" />
      <trkpt lat="28.4180142" lon="83.8184311" />
      <trkpt lat="28.4179522" lon="83.8185338" />
      <trkpt lat="28.4178975" lon="83.8186319" />
      <trkpt lat="28.4177724" lon="83.8187653" />
      <trkpt lat="28.4176411" lon="83.8187838" />
      <trkpt lat="28.4174381" lon="83.8186951" />
      <trkpt lat="28.4171933" lon="83.8186376" />
      <trkpt lat="28.4170777" lon="83.8184875" />
      <trkpt lat="28.4168997" lon="83.8183249" />
      <trkpt lat="28.4167345" lon="83.8182917" />
      <trkpt lat="28.4166491" lon="83.8182999" />
      <trkpt lat="28.4165375" lon="83.818321" />
      <trkpt lat="28.4163415" lon="83.8184124" />
      <trkpt lat="28.4161814" lon="83.8185442" />
      <trkpt lat="28.4161396" lon="83.8186824" />
      <trkpt lat="28.4160798" lon="83.8187798" />
      <trkpt lat="28.4158723" lon="83.8189829" />
      <trkpt lat="28.4157579" lon="83.8191098" />
      <trkpt lat="28.4154985" lon="83.8192535" />
    </trkseg>
    <trkseg>
      <trkpt lat="28.4200417" lon="83.8176077" />
      <trkpt lat="28.4199523" lon="83.81759" />
      <trkpt lat="28.4198197" lon="83.8175826" />
      <trkpt lat="28.4197373" lon="83.817595" />
      <trkpt lat="28.4195983" lon="83.817658" />
      <trkpt lat="28.4195041" lon="83.8176513" />
      <trkpt lat="28.4193068" lon="83.8177452" />
      <trkpt lat="28.4190183" lon="83.8179124" />
      <trkpt lat="28.4189253" lon="83.817883" />
      <trkpt lat="28.4187598" lon="83.8180004" />
      <trkpt lat="28.4186567" lon="83.8180619" />
      <trkpt lat="28.4185883" lon="83.8180945" />
      <trkpt lat="28.4184513" lon="83.8181825" />
      <trkpt lat="28.4182965" lon="83.8183635" />
      <trkpt lat="28.4181875" lon="83.8182979" />
      <trkpt lat="28.4181291" lon="83.8183231" />
      <trkpt lat="28.4180348" lon="83.818306" />
    </trkseg>
    <trkseg>
      <trkpt lat="28.4278572" lon="83.8211015" />
      <trkpt lat="28.4278162" lon="83.8210313" />
      <trkpt lat="28.4277742" lon="83.8210626" />
      <trkpt lat="28.4277531" lon="83.8211077" />
      <trkpt lat="28.427723" lon="83.8211299" />
      <trkpt lat="28.4276874" lon="83.8211277" />
      <trkpt lat="28.4276835" lon="83.8211145" />
      <trkpt lat="28.4277073" lon="83.8210666" />
      <trkpt lat="28.4277228" lon="83.8210124" />
      <trkpt lat="28.4276894" lon="83.8210105" />
      <trkpt lat="28.4276502" lon="83.821026" />
      <trkpt lat="28.4275373" lon="83.8210773" />
      <trkpt lat="28.427519" lon="83.8210628" />
      <trkpt lat="28.4275219" lon="83.8210353" />
      <trkpt lat="28.4275927" lon="83.8209369" />
      <trkpt lat="28.4276092" lon="83.8208777" />
      <trkpt lat="28.4276016" lon="83.8208109" />
      <trkpt lat="28.4275813" lon="83.8207677" />
      <trkpt lat="28.4275615" lon="83.8207544" />
      <trkpt lat="28.4275184" lon="83.8207738" />
      <trkpt lat="28.4274321" lon="83.8208071" />
      <trkpt lat="28.4274158" lon="83.82081" />
      <trkpt lat="28.4274067" lon="83.8207979" />
      <trkpt lat="28.4274421" lon="83.8206128" />
      <trkpt lat="28.4273714" lon="83.820417" />
      <trkpt lat="28.4272871" lon="83.8202674" />
      <trkpt lat="28.4271801" lon="83.8201619" />
      <trkpt lat="28.4270558" lon="83.8201065" />
      <trkpt lat="28.4269156" lon="83.8199151" />
      <trkpt lat="28.4268373" lon="83.8198371" />
      <trkpt lat="28.4268024" lon="83.8198056" />
      <trkpt lat="28.4268333" lon="83.8197376" />
      <trkpt lat="28.4266854" lon="83.8195122" />
      <trkpt lat="28.4265901" lon="83.8193906" />
      <trkpt lat="28.4265128" lon="83.8194523" />
      <trkpt lat="28.4263185" lon="83.8192564" />
      <trkpt lat="28.4260834" lon="83.8191691" />
      <trkpt lat="28.4259976" lon="83.8190494" />
      <trkpt lat="28.4259233" lon="83.8190426" />
      <trkpt lat="28.4257288" lon="83.8191721" />
      <trkpt lat="28.4256277" lon="83.8190767" />
      <trkpt lat="28.4255771" lon="83.819029" />
      <trkpt lat="28.4254918" lon="83.8189222" />
      <trkpt lat="28.4251041" lon="83.8187492" />
      <trkpt lat="28.4249929" lon="83.8186066" />
      <trkpt lat="28.4248522" lon="83.8186868" />
      <trkpt lat="28.4248317" lon="83.818683" />
      <trkpt lat="28.4248128" lon="83.8186609" />
      <trkpt lat="28.4247916" lon="83.818628" />
      <trkpt lat="28.424717" lon="83.8186094" />
      <trkpt lat="28.4246406" lon="83.8184102" />
      <trkpt lat="28.4244187" lon="83.8181385" />
      <trkpt lat="28.4241628" lon="83.8181253" />
      <trkpt lat="28.423975" lon="83.8181056" />
      <trkpt lat="28.4238881" lon="83.8179798" />
      <trkpt lat="28.4237789" lon="83.8179728" />
      <trkpt lat="28.4235893" lon="83.8179114" />
      <trkpt lat="28.4235782" lon="83.8178064" />
      <trkpt lat="28.4234921" lon="83.8177608" />
      <trkpt lat="28.4233813" lon="83.817667" />
      <trkpt lat="28.4232161" lon="83.817726" />
      <trkpt lat="28.4227942" lon="83.8176896" />
      <trkpt lat="28.4221736" lon="83.8173273" />
      <trkpt lat="28.422036" lon="83.8171877" />
      <trkpt lat="28.4219895" lon="83.8171062" />
      <trkpt lat="28.4219163" lon="83.8170369" />
      <trkpt lat="28.4217859" lon="83.8170309" />
      <trkpt lat="28.4216129" lon="83.8171149" />
      <trkpt lat="28.4212233" lon="83.8172391" />
      <trkpt lat="28.4212161" lon="83.8173112" />
      <trkpt lat="28.4211622" lon="83.8173439" />
      <trkpt lat="28.4211454" lon="83.8174107" />
      <trkpt lat="28.4211103" lon="83.8174139" />
      <trkpt lat="28.4210783" lon="83.8173745" />
      <trkpt lat="28.4209787" lon="83.8174381" />
      <trkpt lat="28.4209705" lon="83.8175726" />
      <trkpt lat="28.4209628" lon="83.8176252" />
      <trkpt lat="28.4209444" lon="83.8176458" />
      <trkpt lat="28.4209093" lon="83.8176416" />
      <trkpt lat="28.4208924" lon="83.8176182" />
      <trkpt lat="28.4208713" lon="83.8175884" />
      <trkpt lat="28.4208445" lon="83.8175462" />
      <trkpt lat="28.4208101" lon="83.8174878" />
      <trkpt lat="28.4207484" lon="83.8175008" />
      <trkpt lat="28.4206875" lon="83.8175194" />
      <trkpt lat="28.4205645" lon="83.8175525" />
      <trkpt lat="28.4204748" lon="83.8175631" />
      <trkpt lat="28.4203391" lon="83.8175791" />
      <trkpt lat="28.4201929" lon="83.8175967" />
      <trkpt lat="28.4200417" lon="83.8176077" />
    </trkseg>
    <trkseg>
      <trkpt lat="28.4282322" lon="83.8217512" />
      <trkpt lat="28.4278572" lon="83.8211015" />
    </trkseg>
    <trkseg>
      <trkpt lat="28.4281766" lon="83.8256665" />
      <trkpt lat="28.4281588" lon="83.8254771" />
      <trkpt lat="28.4281282" lon="83.8254046" />
      <trkpt lat="28.4281282" lon="83.8251311" />
      <trkpt lat="28.4280935" lon="83.8249479" />
      <trkpt lat="28.4281304" lon="83.8247619" />
      <trkpt lat="28.4280807" lon="83.8247059" />
      <trkpt lat="28.4280778" lon="83.8244976" />
      <trkpt lat="28.4280966" lon="83.824452" />
      <trkpt lat="28.42818" lon="83.8244283" />
      <trkpt lat="28.428272" lon="83.8244525" />
      <trkpt lat="28.428325" lon="83.8244109" />
      <trkpt lat="28.4284018" lon="83.824321" />
      <trkpt lat="28.4284607" lon="83.8242298" />
      <trkpt lat="28.4284202" lon="83.8240976" />
      <trkpt lat="28.4284159" lon="83.8239187" />
      <trkpt lat="28.4283593" lon="83.823908" />
      <trkpt lat="28.4283216" lon="83.8239482" />
      <trkpt lat="28.428296" lon="83.8239533" />
      <trkpt lat="28.4282858" lon="83.8237787" />
      <trkpt lat="28.4282684" lon="83.8237488" />
      <trkpt lat="28.4281751" lon="83.8237718" />
      <trkpt lat="28.4282626" lon="83.8236424" />
      <trkpt lat="28.4282225" lon="83.8235673" />
      <trkpt lat="28.4281517" lon="83.8234895" />
      <trkpt lat="28.4281824" lon="83.8234386" />
      <trkpt lat="28.4281541" lon="83.823393" />
      <trkpt lat="28.4281848" lon="83.8233393" />
      <trkpt lat="28.4281588" lon="83.8232455" />
      <trkpt lat="28.4281953" lon="83.8231516" />
      <trkpt lat="28.4284137" lon="83.8227674" />
      <trkpt lat="28.4283781" lon="83.822661" />
      <trkpt lat="28.4283229" lon="83.822544" />
      <trkpt lat="28.4283069" lon="83.8224707" />
      <trkpt lat="28.4282807" lon="83.822404" />
      <trkpt lat="28.4282211" lon="83.8223066" />
      <trkpt lat="28.4281701" lon="83.8222809" />
      <trkpt lat="28.4281543" lon="83.8221764" />
      <trkpt lat="28.4282045" lon="83.8220526" />
      <trkpt lat="28.4281701" lon="83.8218629" />
      <trkpt lat="28.428246" lon="83.8218239" />
      <trkpt lat="28.4282543" lon="83.8217887" />
      <trkpt lat="28.4282322" lon="83.8217512" />
    </trkseg>
    <trkseg>
      <trkpt lat="28.4491145" lon="83.8459906" />
      <trkpt lat="28.4490458" lon="83.845915" />
      <trkpt lat="28.4489871" lon="83.8458726" />
      <trkpt lat="28.4489447" lon="83.845835" />
      <trkpt lat="28.4488692" lon="83.8458404" />
      <trkpt lat="28.4487718" lon="83.8458486" />
      <trkpt lat="28.4487112" lon="83.8458645" />
      <trkpt lat="28.4485956" lon="83.8458243" />
      <trkpt lat="28.4484565" lon="83.8457465" />
      <trkpt lat="28.4482799" lon="83.8456577" />
      <trkpt lat="28.4481051" lon="83.8455802" />
      <trkpt lat="28.4479399" lon="83.8455614" />
      <trkpt lat="28.4477278" lon="83.8455909" />
      <trkpt lat="28.4474778" lon="83.8457036" />
      <trkpt lat="28.447308" lon="83.8457036" />
      <trkpt lat="28.4469887" lon="83.8456896" />
      <trkpt lat="28.4467608" lon="83.8456714" />
      <trkpt lat="28.4464977" lon="83.8456396" />
      <trkpt lat="28.4463505" lon="83.845709" />
      <trkpt lat="28.4462609" lon="83.845768" />
      <trkpt lat="28.4461618" lon="83.845666" />
      <trkpt lat="28.4460434" lon="83.8455694" />
      <trkpt lat="28.4458175" lon="83.8454676" />
      <trkpt lat="28.4455816" lon="83.8454568" />
      <trkpt lat="28.4454721" lon="83.8454244" />
      <trkpt lat="28.44536" lon="83.84543" />
      <trkpt lat="28.4452727" lon="83.8453978" />
      <trkpt lat="28.4451784" lon="83.8454112" />
      <trkpt lat="28.4450713" lon="83.8454622" />
      <trkpt lat="28.4448635" lon="83.8455821" />
      <trkpt lat="28.4447726" lon="83.8456009" />
      <trkpt lat="28.4446991" lon="83.8455536" />
      <trkpt lat="28.444645" lon="83.8453878" />
      <trkpt lat="28.4445926" lon="83.8452268" />
      <trkpt lat="28.4443789" lon="83.845017" />
      <trkpt lat="28.4440443" lon="83.8447935" />
      <trkpt lat="28.4434927" lon="83.8443137" />
      <trkpt lat="28.4434269" lon="83.8441899" />
      <trkpt lat="28.4434023" lon="83.8441946" />
      <trkpt lat="28.4433754" lon="83.8443811" />
      <trkpt lat="28.4433475" lon="83.8443932" />
      <trkpt lat="28.4432881" lon="83.844264" />
      <trkpt lat="28.4432425" lon="83.8441859" />
      <trkpt lat="28.4431614" lon="83.8441018" />
      <trkpt lat="28.4430511" lon="83.8440862" />
      <trkpt lat="28.4428783" lon="83.8441063" />
      <trkpt lat="28.4427539" lon="83.8441586" />
      <trkpt lat="28.4423856" lon="83.8441243" />
      <trkpt lat="28.4423365" lon="83.8440433" />
      <trkpt lat="28.4421902" lon="83.8439897" />
      <trkpt lat="28.442101" lon="83.8439303" />
      <trkpt lat="28.4420016" lon="83.8437295" />
      <trkpt lat="28.4418954" lon="83.8436276" />
      <trkpt lat="28.4417781" lon="83.8435572" />
      <trkpt lat="28.4415866" lon="83.8433009" />
      <trkpt lat="28.4414709" lon="83.8431206" />
      <trkpt lat="28.441327" lon="83.8429999" />
      <trkpt lat="28.4412468" lon="83.8429007" />
      <trkpt lat="28.4412185" lon="83.8428712" />
      <trkpt lat="28.4411242" lon="83.8428068" />
      <trkpt lat="28.4410912" lon="83.8427961" />
      <trkpt lat="28.4410188" lon="83.842698" />
      <trkpt lat="28.4409591" lon="83.8426137" />
      <trkpt lat="28.4409119" lon="83.842493" />
      <trkpt lat="28.4408836" lon="83.8423964" />
      <trkpt lat="28.4408212" lon="83.8422265" />
      <trkpt lat="28.4407138" lon="83.8422114" />
      <trkpt lat="28.4406384" lon="83.8423026" />
      <trkpt lat="28.440505" lon="83.8423305" />
      <trkpt lat="28.4403601" lon="83.8423321" />
      <trkpt lat="28.4402412" lon="83.8423023" />
      <trkpt lat="28.4401289" lon="83.8421792" />
      <trkpt lat="28.4399168" lon="83.8420459" />
      <trkpt lat="28.4397561" lon="83.8418221" />
      <trkpt lat="28.4395013" lon="83.8416129" />
      <trkpt lat="28.4394002" lon="83.8414416" />
      <trkpt lat="28.4391922" lon="83.8413522" />
      <trkpt lat="28.4390216" lon="83.8411571" />
      <trkpt lat="28.4389048" lon="83.8408864" />
      <trkpt lat="28.4387659" lon="83.8407144" />
      <trkpt lat="28.4385699" lon="83.8405806" />
      <trkpt lat="28.4383493" lon="83.8404927" />
      <trkpt lat="28.4381889" lon="83.8403549" />
      <trkpt lat="28.4380851" lon="83.8402487" />
      <trkpt lat="28.4379281" lon="83.840119" />
      <trkpt lat="28.4377203" lon="83.8399387" />
      <trkpt lat="28.4376631" lon="83.8397886" />
      <trkpt lat="28.4375638" lon="83.8396084" />
      <trkpt lat="28.4374424" lon="83.839365" />
      <trkpt lat="28.4371923" lon="83.8391481" />
      <trkpt lat="28.4370363" lon="83.839056" />
      <trkpt lat="28.4370055" lon="83.8390438" />
      <trkpt lat="28.4368373" lon="83.8389896" />
      <trkpt lat="28.4367048" lon="83.838869" />
      <trkpt lat="28.4366336" lon="83.8386762" />
      <trkpt lat="28.4364777" lon="83.8385157" />
      <trkpt lat="28.4360525" lon="83.8383785" />
      <trkpt lat="28.435448" lon="83.8383771" />
      <trkpt lat="28.435285" lon="83.8383459" />
      <trkpt lat="28.4352087" lon="83.8383397" />
      <trkpt lat="28.4350814" lon="83.8383477" />
      <trkpt lat="28.4349906" lon="83.8383648" />
      <trkpt lat="28.4349243" lon="83.8384175" />
      <trkpt lat="28.4348646" lon="83.8384214" />
      <trkpt lat="28.4347293" lon="83.8384194" />
      <trkpt lat="28.4346806" lon="83.8383881" />
      <trkpt lat="28.4345919" lon="83.8382095" />
      <trkpt lat="28.4345639" lon="83.8381603" />
      <trkpt lat="28.4345515" lon="83.8380605" />
      <trkpt lat="28.4345638" lon="83.8379052" />
      <trkpt lat="28.4345405" lon="83.8377268" />
      <trkpt lat="28.4344617" lon="83.8374405" />
      <trkpt lat="28.4343329" lon="83.8372787" />
      <trkpt lat="28.4342783" lon="83.8371575" />
      <trkpt lat="28.434216" lon="83.8371205" />
      <trkpt lat="28.4341267" lon="83.8370143" />
      <trkpt lat="28.4340952" lon="83.8369211" />
      <trkpt lat="28.4340976" lon="83.8368646" />
      <trkpt lat="28.4341051" lon="83.8367531" />
      <trkpt lat="28.4341004" lon="83.8366592" />
      <trkpt lat="28.4340339" lon="83.8365771" />
      <trkpt lat="28.433973" lon="83.8365331" />
      <trkpt lat="28.4339565" lon="83.8364527" />
      <trkpt lat="28.4339094" lon="83.8363802" />
      <trkpt lat="28.4338009" lon="83.8362622" />
      <trkpt lat="28.4336876" lon="83.8360798" />
      <trkpt lat="28.4336027" lon="83.8359618" />
      <trkpt lat="28.4334471" lon="83.8358089" />
      <trkpt lat="28.4331947" lon="83.8354093" />
      <trkpt lat="28.4330249" lon="83.8351893" />
      <trkpt lat="28.4329182" lon="83.8350666" />
      <trkpt lat="28.4328376" lon="83.8349575" />
      <trkpt lat="28.432795" lon="83.8348755" />
      <trkpt lat="28.4326634" lon="83.8346823" />
      <trkpt lat="28.432612" lon="83.8346326" />
      <trkpt lat="28.432597" lon="83.8346426" />
      <trkpt lat="28.4326016" lon="83.8347155" />
      <trkpt lat="28.4326032" lon="83.834876" />
      <trkpt lat="28.4325824" lon="83.834972" />
      <trkpt lat="28.4325583" lon="83.8349895" />
      <trkpt lat="28.4325314" lon="83.8349626" />
      <trkpt lat="28.432525" lon="83.8348857" />
      <trkpt lat="28.4324661" lon="83.8347811" />
      <trkpt lat="28.4323764" lon="83.8345818" />
      <trkpt lat="28.4323794" lon="83.8343168" />
      <trkpt lat="28.4323784" lon="83.8341961" />
      <trkpt lat="28.4323749" lon="83.8340571" />
      <trkpt lat="28.4323234" lon="83.8338871" />
      <trkpt lat="28.4322673" lon="83.8337803" />
      <trkpt lat="28.4321852" lon="83.8335746" />
      <trkpt lat="28.4320908" lon="83.8332957" />
      <trkpt lat="28.4320399" lon="83.8331126" />
      <trkpt lat="28.4319776" lon="83.8329631" />
      <trkpt lat="28.4318785" lon="83.8328612" />
      <trkpt lat="28.4318738" lon="83.8326788" />
      <trkpt lat="28.431855" lon="83.8325888" />
      <trkpt lat="28.4317064" lon="83.832534" />
      <trkpt lat="28.4315177" lon="83.8323945" />
      <trkpt lat="28.4314115" lon="83.8322818" />
      <trkpt lat="28.4313431" lon="83.8321584" />
      <trkpt lat="28.431211" lon="83.8320914" />
      <trkpt lat="28.4310058" lon="83.8318714" />
      <trkpt lat="28.4308289" lon="83.8317373" />
      <trkpt lat="28.4307558" lon="83.8316166" />
      <trkpt lat="28.4305904" lon="83.8314554" />
      <trkpt lat="28.4300932" lon="83.8309774" />
      <trkpt lat="28.4300679" lon="83.8308789" />
      <trkpt lat="28.4300328" lon="83.8308625" />
      <trkpt lat="28.4300252" lon="83.8308945" />
      <trkpt lat="28.4300366" lon="83.8309842" />
      <trkpt lat="28.4300189" lon="83.8309938" />
      <trkpt lat="28.4300029" lon="83.8309324" />
      <trkpt lat="28.4299579" lon="83.8308634" />
      <trkpt lat="28.4298598" lon="83.8308261" />
      <trkpt lat="28.4296613" lon="83.8307583" />
      <trkpt lat="28.4295202" lon="83.8307208" />
      <trkpt lat="28.4293901" lon="83.8305867" />
      <trkpt lat="28.4292887" lon="83.8305169" />
      <trkpt lat="28.429072" lon="83.8304648" />
      <trkpt lat="28.4290081" lon="83.8304842" />
      <trkpt lat="28.4288116" lon="83.8304246" />
      <trkpt lat="28.4287037" lon="83.8303775" />
      <trkpt lat="28.4286359" lon="83.8302903" />
      <trkpt lat="28.4284136" lon="83.8302219" />
      <trkpt lat="28.4282673" lon="83.8302112" />
      <trkpt lat="28.428126" lon="83.8301743" />
      <trkpt lat="28.4280044" lon="83.830103" />
      <trkpt lat="28.4280432" lon="83.8299188" />
      <trkpt lat="28.4280579" lon="83.8298306" />
      <trkpt lat="28.4281264" lon="83.8298088" />
      <trkpt lat="28.4281572" lon="83.8297154" />
      <trkpt lat="28.42816" lon="83.8294917" />
      <trkpt lat="28.4281317" lon="83.8294682" />
      <trkpt lat="28.42817" lon="83.8293515" />
      <trkpt lat="28.4281777" lon="83.8292912" />
      <trkpt lat="28.4282131" lon="83.8292241" />
      <trkpt lat="28.4282201" lon="83.8291678" />
      <trkpt lat="28.4282284" lon="83.8290856" />
      <trkpt lat="28.4282862" lon="83.8289961" />
      <trkpt lat="28.4283522" lon="83.8289559" />
      <trkpt lat="28.4284065" lon="83.8289183" />
      <trkpt lat="28.4284553" lon="83.828846" />
      <trkpt lat="28.4284773" lon="83.8287789" />
      <trkpt lat="28.4284612" lon="83.828765" />
      <trkpt lat="28.4283859" lon="83.8287987" />
      <trkpt lat="28.4283659" lon="83.8287938" />
      <trkpt lat="28.4283642" lon="83.8287645" />
      <trkpt lat="28.4284109" lon="83.8286973" />
      <trkpt lat="28.4284209" lon="83.8286391" />
      <trkpt lat="28.4284489" lon="83.8286018" />
      <trkpt lat="28.4284512" lon="83.8285364" />
      <trkpt lat="28.428527" lon="83.8283662" />
      <trkpt lat="28.4286067" lon="83.8282486" />
      <trkpt lat="28.4287226" lon="83.828052" />
      <trkpt lat="28.4288494" lon="83.8278933" />
      <trkpt lat="28.4289655" lon="83.8277945" />
      <trkpt lat="28.4290386" lon="83.8277301" />
      <trkpt lat="28.4290843" lon="83.8276228" />
      <trkpt lat="28.4291283" lon="83.8274512" />
      <trkpt lat="28.4291695" lon="83.8272413" />
      <trkpt lat="28.4291675" lon="83.8271397" />
      <trkpt lat="28.4291377" lon="83.8270408" />
      <trkpt lat="28.4291383" lon="83.8269454" />
      <trkpt lat="28.4291139" lon="83.8268766" />
      <trkpt lat="28.4290259" lon="83.8268345" />
      <trkpt lat="28.4289872" lon="83.8267589" />
      <trkpt lat="28.4289511" lon="83.8266421" />
      <trkpt lat="28.4289226" lon="83.8266131" />
      <trkpt lat="28.4289486" lon="83.8265298" />
      <trkpt lat="28.4289113" lon="83.8265043" />
      <trkpt lat="28.4288438" lon="83.8264135" />
      <trkpt lat="28.4287742" lon="83.8263237" />
      <trkpt lat="28.4286542" lon="83.8262925" />
      <trkpt lat="28.4285989" lon="83.826316" />
      <trkpt lat="28.428456" lon="83.8263971" />
      <trkpt lat="28.4283237" lon="83.8264042" />
      <trkpt lat="28.428265" lon="83.8263548" />
      <trkpt lat="28.4282471" lon="83.8263144" />
      <trkpt lat="28.4282349" lon="83.8262268" />
      <trkpt lat="28.4282586" lon="83.8260242" />
      <trkpt lat="28.4282069" lon="83.8259251" />
      <trkpt lat="28.4281779" lon="83.8258626" />
      <trkpt lat="28.4281816" lon="83.8257908" />
      <trkpt lat="28.4281764" lon="83.8257132" />
      <trkpt lat="28.4281766" lon="83.8256665" />
    </trkseg>
    <trkseg>
      <trkpt lat="28.4492088" lon="83.8461274" />
      <trkpt lat="28.4491145" lon="83.8459906" />
    </trkseg>
    <trkseg>
      <trkpt lat="28.4504752" lon="83.8482992" />
      <trkpt lat="28.4504657" lon="83.8482624" />
      <trkpt lat="28.4504266" lon="83.8481522" />
      <trkpt lat="28.4504092" lon="83.8480291" />
      <trkpt lat="28.4504516" lon="83.8479137" />
      <trkpt lat="28.4504688" lon="83.8478121" />
      <trkpt lat="28.4504186" lon="83.8477448" />
      <trkpt lat="28.4502889" lon="83.8477206" />
      <trkpt lat="28.4500979" lon="83.8476187" />
      <trkpt lat="28.4499658" lon="83.8475007" />
      <trkpt lat="28.4498267" lon="83.8473371" />
      <trkpt lat="28.4496935" lon="83.8471628" />
      <trkpt lat="28.4495838" lon="83.8469481" />
      <trkpt lat="28.4495272" lon="83.8467309" />
      <trkpt lat="28.4494529" lon="83.8465867" />
      <trkpt lat="28.4493597" lon="83.8463473" />
      <trkpt lat="28.4492795" lon="83.8462293" />
      <trkpt lat="28.4492088" lon="83.8461274" />
    </trkseg>
    <trkseg>
      <trkpt lat="28.4504988" lon="83.8483912" />
      <trkpt lat="28.4504752" lon="83.8482992" />
    </trkseg>
    <trkseg>
      <trkpt lat="28.4533934" lon="83.851856" />
      <trkpt lat="28.453254" lon="83.8516762" />
      <trkpt lat="28.4530283" lon="83.8513807" />
      <trkpt lat="28.452857" lon="83.8510814" />
      <trkpt lat="28.452757" lon="83.8509217" />
      <trkpt lat="28.4526188" lon="83.8508024" />
      <trkpt lat="28.4524278" lon="83.8506362" />
      <trkpt lat="28.4523075" lon="83.8504457" />
      <trkpt lat="28.4521826" lon="83.8502741" />
      <trkpt lat="28.4520929" lon="83.8501373" />
      <trkpt lat="28.4520382" lon="83.850011" />
      <trkpt lat="28.4519123" lon="83.8499953" />
      <trkpt lat="28.4518156" lon="83.849991" />
      <trkpt lat="28.4516474" lon="83.8500283" />
      <trkpt lat="28.4515034" lon="83.8501132" />
      <trkpt lat="28.4514185" lon="83.8502365" />
      <trkpt lat="28.4513855" lon="83.8503411" />
      <trkpt lat="28.4512982" lon="83.8504028" />
      <trkpt lat="28.4512322" lon="83.8504565" />
      <trkpt lat="28.4511449" lon="83.8504538" />
      <trkpt lat="28.4510688" lon="83.8504535" />
      <trkpt lat="28.4509327" lon="83.8502821" />
      <trkpt lat="28.4508124" lon="83.8501024" />
      <trkpt lat="28.4507039" lon="83.8499817" />
      <trkpt lat="28.4506572" lon="83.8498624" />
      <trkpt lat="28.4505837" lon="83.8494909" />
      <trkpt lat="28.4505682" lon="83.8491421" />
      <trkpt lat="28.4505503" lon="83.8489685" />
      <trkpt lat="28.4505412" lon="83.8486594" />
      <trkpt lat="28.4504988" lon="83.8483912" />
    </trkseg>
    <trkseg>
      <trkpt lat="28.4543246" lon="83.8544719" />
      <trkpt lat="28.4541753" lon="83.8541204" />
      <trkpt lat="28.4539866" lon="83.8536912" />
      <trkpt lat="28.4538828" lon="83.8533533" />
      <trkpt lat="28.4537343" lon="83.852908" />
      <trkpt lat="28.4536012" lon="83.8526414" />
      <trkpt lat="28.4535433" lon="83.8524313" />
      <trkpt lat="28.4535367" lon="83.8524268" />
      <trkpt lat="28.4535223" lon="83.8524269" />
      <trkpt lat="28.4535209" lon="83.8524229" />
      <trkpt lat="28.4535598" lon="83.8523868" />
      <trkpt lat="28.4535624" lon="83.852347" />
      <trkpt lat="28.4535318" lon="83.8522889" />
      <trkpt lat="28.453414" lon="83.8521236" />
      <trkpt lat="28.4534157" lon="83.8521043" />
      <trkpt lat="28.4534872" lon="83.8521055" />
      <trkpt lat="28.4535053" lon="83.85208" />
      <trkpt lat="28.453488" lon="83.8520431" />
      <trkpt lat="28.4534376" lon="83.8519402" />
      <trkpt lat="28.4533934" lon="83.851856" />
    </trkseg>
    <trkseg>
      <trkpt lat="28.4567799" lon="83.8567662" />
      <trkpt lat="28.4566818" lon="83.8566845" />
      <trkpt lat="28.4567032" lon="83.8566335" />
      <trkpt lat="28.4566199" lon="83.8565626" />
      <trkpt lat="28.4565743" lon="83.8565681" />
      <trkpt lat="28.4565363" lon="83.8566131" />
      <trkpt lat="28.4565085" lon="83.8566092" />
      <trkpt lat="28.4564226" lon="83.8565102" />
      <trkpt lat="28.456317" lon="83.8563865" />
      <trkpt lat="28.4562056" lon="83.8563573" />
      <trkpt lat="28.4559658" lon="83.85624" />
      <trkpt lat="28.4558541" lon="83.8561513" />
      <trkpt lat="28.455728" lon="83.8559592" />
      <trkpt lat="28.4556585" lon="83.8557924" />
      <trkpt lat="28.4555157" lon="83.8556787" />
      <trkpt lat="28.4553237" lon="83.8555822" />
      <trkpt lat="28.4551728" lon="83.8555473" />
      <trkpt lat="28.4549962" lon="83.8554392" />
      <trkpt lat="28.4548179" lon="83.8552415" />
      <trkpt lat="28.4546702" lon="83.8550467" />
      <trkpt lat="28.4545867" lon="83.854868" />
      <trkpt lat="28.4544957" lon="83.8547612" />
      <trkpt lat="28.4544068" lon="83.8546121" />
      <trkpt lat="28.4543246" lon="83.8544719" />
    </trkseg>
    <trkseg>
      <trkpt lat="28.4572425" lon="83.8567864" />
      <trkpt lat="28.457217" lon="83.8567491" />
      <trkpt lat="28.4569442" lon="83.8567845" />
      <trkpt lat="28.4569116" lon="83.8567432" />
      <trkpt lat="28.4567799" lon="83.8567662" />
    </trkseg>
    <trkseg>
      <trkpt lat="28.4572987" lon="83.8568684" />
      <trkpt lat="28.4572425" lon="83.8567864" />
    </trkseg>
    <trkseg>
      <trkpt lat="28.4588129" lon="83.8578558" />
      <trkpt lat="28.4585649" lon="83.8577011" />
      <trkpt lat="28.4584187" lon="83.8576287" />
      <trkpt lat="28.4582603" lon="83.8575033" />
      <trkpt lat="28.4581134" lon="83.8573658" />
      <trkpt lat="28.457986" lon="83.8571982" />
      <trkpt lat="28.4579294" lon="83.8571432" />
      <trkpt lat="28.4577927" lon="83.8570254" />
      <trkpt lat="28.4575677" lon="83.8570217" />
      <trkpt lat="28.4574946" lon="83.8569676" />
      <trkpt lat="28.4574432" lon="83.8569441" />
      <trkpt lat="28.4573432" lon="83.8569022" />
      <trkpt lat="28.4572987" lon="83.8568684" />
    </trkseg>
    <trkseg>
      <trkpt lat="28.4588243" lon="83.8579546" />
      <trkpt lat="28.4588129" lon="83.8578558" />
    </trkseg>
    <trkseg>
      <trkpt lat="28.4636559" lon="83.860905" />
      <trkpt lat="28.4636265" lon="83.8608862" />
      <trkpt lat="28.4635828" lon="83.8608916" />
      <trkpt lat="28.4635474" lon="83.8609142" />
      <trkpt lat="28.4634885" lon="83.8609332" />
      <trkpt lat="28.4634284" lon="83.8609466" />
      <trkpt lat="28.4633919" lon="83.8609667" />
      <trkpt lat="28.4633636" lon="83.8609748" />
      <trkpt lat="28.4633147" lon="83.8609619" />
      <trkpt lat="28.4632876" lon="83.8609649" />
      <trkpt lat="28.4632504" lon="83.860964" />
      <trkpt lat="28.4632176" lon="83.860964" />
      <trkpt lat="28.4631678" lon="83.8609399" />
      <trkpt lat="28.4631296" lon="83.8609364" />
      <trkpt lat="28.4630959" lon="83.8609426" />
      <trkpt lat="28.4630641" lon="83.8609466" />
      <trkpt lat="28.4630275" lon="83.8609748" />
      <trkpt lat="28.4630028" lon="83.8610136" />
      <trkpt lat="28.4630004" lon="83.8610432" />
      <trkpt lat="28.4629733" lon="83.8610592" />
      <trkpt lat="28.4629191" lon="83.8610753" />
      <trkpt lat="28.4628908" lon="83.8610807" />
      <trkpt lat="28.4627917" lon="83.8611034" />
      <trkpt lat="28.4627375" lon="83.8611075" />
      <trkpt lat="28.4626715" lon="83.8610555" />
      <trkpt lat="28.4626196" lon="83.8610633" />
      <trkpt lat="28.4625795" lon="83.8611156" />
      <trkpt lat="28.46253" lon="83.8611183" />
      <trkpt lat="28.462493" lon="83.8611035" />
      <trkpt lat="28.4624722" lon="83.8611035" />
      <trkpt lat="28.462431" lon="83.8610981" />
      <trkpt lat="28.4624039" lon="83.8610552" />
      <trkpt lat="28.4623637" lon="83.8610378" />
      <trkpt lat="28.4622989" lon="83.8610566" />
      <trkpt lat="28.4621388" lon="83.8609861" />
      <trkpt lat="28.4620419" lon="83.8610083" />
      <trkpt lat="28.4619381" lon="83.8609225" />
      <trkpt lat="28.4617825" lon="83.8608956" />
      <trkpt lat="28.4616175" lon="83.8608339" />
      <trkpt lat="28.4614783" lon="83.8607453" />
      <trkpt lat="28.4613604" lon="83.8606381" />
      <trkpt lat="28.4612637" lon="83.8604799" />
      <trkpt lat="28.4611883" lon="83.8603994" />
      <trkpt lat="28.4611401" lon="83.8603197" />
      <trkpt lat="28.4610586" lon="83.8602358" />
      <trkpt lat="28.4609454" lon="83.8601124" />
      <trkpt lat="28.4607992" lon="83.8600427" />
      <trkpt lat="28.4606742" lon="83.8599434" />
      <trkpt lat="28.460472" lon="83.8597129" />
      <trkpt lat="28.4603797" lon="83.8595761" />
      <trkpt lat="28.4602615" lon="83.8594177" />
      <trkpt lat="28.4602073" lon="83.8593507" />
      <trkpt lat="28.4601107" lon="83.8591737" />
      <trkpt lat="28.4599951" lon="83.8590395" />
      <trkpt lat="28.4598958" lon="83.8589375" />
      <trkpt lat="28.4598277" lon="83.858892" />
      <trkpt lat="28.4597131" lon="83.858865" />
      <trkpt lat="28.459599" lon="83.8587638" />
      <trkpt lat="28.4596092" lon="83.8586635" />
      <trkpt lat="28.4596744" lon="83.8586265" />
      <trkpt lat="28.4597758" lon="83.8585768" />
      <trkpt lat="28.4597549" lon="83.8585467" />
      <trkpt lat="28.45963" lon="83.8585536" />
      <trkpt lat="28.4595801" lon="83.8585353" />
      <trkpt lat="28.4595188" lon="83.8585393" />
      <trkpt lat="28.4595058" lon="83.858519" />
      <trkpt lat="28.4595519" lon="83.8584619" />
      <trkpt lat="28.4596174" lon="83.8583934" />
      <trkpt lat="28.459612" lon="83.858354" />
      <trkpt lat="28.4595718" lon="83.8583467" />
      <trkpt lat="28.4595032" lon="83.8583783" />
      <trkpt lat="28.4594575" lon="83.858314" />
      <trkpt lat="28.4594021" lon="83.8582925" />
      <trkpt lat="28.4593372" lon="83.8582604" />
      <trkpt lat="28.4592276" lon="83.8581665" />
      <trkpt lat="28.4591203" lon="83.858145" />
      <trkpt lat="28.4590318" lon="83.8581182" />
      <trkpt lat="28.4589223" lon="83.8581104" />
      <trkpt lat="28.4588514" lon="83.858031" />
      <trkpt lat="28.4588243" lon="83.8579546" />
    </trkseg>
    <trkseg>
      <trkpt lat="28.4636678" lon="83.8609718" />
      <trkpt lat="28.4636559" lon="83.860905" />
    </trkseg>
    <trkseg>
      <trkpt lat="28.4695556" lon="83.8682865" />
      <trkpt lat="28.4694957" lon="83.868248" />
      <trkpt lat="28.469449" lon="83.8681705" />
      <trkpt lat="28.4693791" lon="83.8681664" />
      <trkpt lat="28.4693185" lon="83.8681939" />
      <trkpt lat="28.4692336" lon="83.8681992" />
      <trkpt lat="28.4691911" lon="83.8681524" />
      <trkpt lat="28.4691267" lon="83.868217" />
      <trkpt lat="28.4690686" lon="83.8682288" />
      <trkpt lat="28.4689747" lon="83.868125" />
      <trkpt lat="28.4689035" lon="83.8679633" />
      <trkpt lat="28.4688219" lon="83.8678394" />
      <trkpt lat="28.4684994" lon="83.867628" />
      <trkpt lat="28.4682984" lon="83.8674006" />
      <trkpt lat="28.4681823" lon="83.8669756" />
      <trkpt lat="28.468149" lon="83.8667804" />
      <trkpt lat="28.4680577" lon="83.8666446" />
      <trkpt lat="28.4678991" lon="83.8665068" />
      <trkpt lat="28.4677057" lon="83.8664478" />
      <trkpt lat="28.4674086" lon="83.8661689" />
      <trkpt lat="28.467286" lon="83.8659865" />
      <trkpt lat="28.4671257" lon="83.8657719" />
      <trkpt lat="28.4670572" lon="83.8656831" />
      <trkpt lat="28.4669534" lon="83.8655484" />
      <trkpt lat="28.466838" lon="83.8654447" />
      <trkpt lat="28.4667248" lon="83.86545" />
      <trkpt lat="28.4665739" lon="83.8653213" />
      <trkpt lat="28.4664324" lon="83.8651979" />
      <trkpt lat="28.4664041" lon="83.8651282" />
      <trkpt lat="28.4662721" lon="83.8650477" />
      <trkpt lat="28.4662108" lon="83.8649028" />
      <trkpt lat="28.4660563" lon="83.8648402" />
      <trkpt lat="28.4659939" lon="83.8646614" />
      <trkpt lat="28.4659656" lon="83.8645327" />
      <trkpt lat="28.4657995" lon="83.864316" />
      <trkpt lat="28.465692" lon="83.8641411" />
      <trkpt lat="28.4655971" lon="83.8638864" />
      <trkpt lat="28.4655762" lon="83.8637523" />
      <trkpt lat="28.4655661" lon="83.8636124" />
      <trkpt lat="28.465555" lon="83.863392" />
      <trkpt lat="28.4654882" lon="83.8632353" />
      <trkpt lat="28.465409" lon="83.8629751" />
      <trkpt lat="28.4653431" lon="83.8628429" />
      <trkpt lat="28.465184" lon="83.8627247" />
      <trkpt lat="28.4650601" lon="83.8626283" />
      <trkpt lat="28.4649092" lon="83.8625371" />
      <trkpt lat="28.4647364" lon="83.8624878" />
      <trkpt lat="28.4646027" lon="83.8624406" />
      <trkpt lat="28.4644413" lon="83.8624707" />
      <trkpt lat="28.4643009" lon="83.862344" />
      <trkpt lat="28.4641834" lon="83.8622907" />
      <trkpt lat="28.4640603" lon="83.8621134" />
      <trkpt lat="28.463937" lon="83.8620635" />
      <trkpt lat="28.4638576" lon="83.86199" />
      <trkpt lat="28.4638465" lon="83.8618703" />
      <trkpt lat="28.4639193" lon="83.8617181" />
      <trkpt lat="28.4639212" lon="83.8616064" />
      <trkpt lat="28.4638637" lon="83.8614804" />
      <trkpt lat="28.463775" lon="83.8614213" />
      <trkpt lat="28.4636598" lon="83.8613869" />
      <trkpt lat="28.4636013" lon="83.861227" />
      <trkpt lat="28.4636076" lon="83.8611572" />
      <trkpt lat="28.4636407" lon="83.8610244" />
      <trkpt lat="28.4636678" lon="83.8609718" />
    </trkseg>
    <trkseg>
      <trkpt lat="28.4695386" lon="83.86841" />
      <trkpt lat="28.4695556" lon="83.8682865" />
    </trkseg>
    <trkseg>
      <trkpt lat="28.4728089" lon="83.873058" />
      <trkpt lat="28.4725934" lon="83.8730303" />
      <trkpt lat="28.4722092" lon="83.8726491" />
      <trkpt lat="28.4718791" lon="83.8724023" />
      <trkpt lat="28.4713209" lon="83.8720125" />
      <trkpt lat="28.471068" lon="83.8717854" />
      <trkpt lat="28.4708841" lon="83.8714099" />
      <trkpt lat="28.4706185" lon="83.8709633" />
      <trkpt lat="28.470461" lon="83.8706974" />
      <trkpt lat="28.4703096" lon="83.8706285" />
      <trkpt lat="28.4701059" lon="83.8703954" />
      <trkpt lat="28.470073" lon="83.8703347" />
      <trkpt lat="28.4700018" lon="83.8701105" />
      <trkpt lat="28.4698902" lon="83.8700102" />
      <trkpt lat="28.4697462" lon="83.8696048" />
      <trkpt lat="28.4697078" lon="83.8694284" />
      <trkpt lat="28.4695401" lon="83.8690978" />
      <trkpt lat="28.4694556" lon="83.8687372" />
      <trkpt lat="28.4693905" lon="83.8685558" />
      <trkpt lat="28.4694035" lon="83.8685003" />
      <trkpt lat="28.4694372" lon="83.8684595" />
      <trkpt lat="28.4695386" lon="83.86841" />
    </trkseg>
    <trkseg>
      <trkpt lat="28.4728139" lon="83.8731855" />
      <trkpt lat="28.4728089" lon="83.873058" />
    </trkseg>
    <trkseg>
      <trkpt lat="28.4731924" lon="83.8736562" />
      <trkpt lat="28.4728599" lon="83.873325" />
      <trkpt lat="28.4727043" lon="83.8732821" />
      <trkpt lat="28.4726253" lon="83.873211" />
      <trkpt lat="28.4728139" lon="83.8731855" />
    </trkseg>
    <trkseg>
      <trkpt lat="28.473223" lon="83.8737837" />
      <trkpt lat="28.4731924" lon="83.8736562" />
    </trkseg>
    <trkseg>
      <trkpt lat="28.4780398" lon="83.8833377" />
      <trkpt lat="28.4779674" lon="83.883256" />
      <trkpt lat="28.4778844" lon="83.8832124" />
      <trkpt lat="28.4779476" lon="83.8830001" />
      <trkpt lat="28.477859" lon="83.8829928" />
      <trkpt lat="28.4778067" lon="83.8828393" />
      <trkpt lat="28.4778129" lon="83.8826187" />
      <trkpt lat="28.4777687" lon="83.8823526" />
      <trkpt lat="28.4776598" lon="83.8823188" />
      <trkpt lat="28.4776694" lon="83.8821704" />
      <trkpt lat="28.4777131" lon="83.8820182" />
      <trkpt lat="28.477632" lon="83.8819586" />
      <trkpt lat="28.4775565" lon="83.881672" />
      <trkpt lat="28.4775255" lon="83.8815202" />
      <trkpt lat="28.477562" lon="83.8814237" />
      <trkpt lat="28.4775975" lon="83.8813682" />
      <trkpt lat="28.4775405" lon="83.8812979" />
      <trkpt lat="28.4774686" lon="83.8812657" />
      <trkpt lat="28.4773372" lon="83.8810349" />
      <trkpt lat="28.4772664" lon="83.8806797" />
      <trkpt lat="28.477155" lon="83.8805081" />
      <trkpt lat="28.4770623" lon="83.8802657" />
      <trkpt lat="28.4769993" lon="83.8800502" />
      <trkpt lat="28.4768837" lon="83.8799714" />
      <trkpt lat="28.4767745" lon="83.8798213" />
      <trkpt lat="28.4766427" lon="83.8796976" />
      <trkpt lat="28.4766298" lon="83.8795453" />
      <trkpt lat="28.4765589" lon="83.8794685" />
      <trkpt lat="28.4765441" lon="83.8793473" />
      <trkpt lat="28.4765682" lon="83.8792736" />
      <trkpt lat="28.4764452" lon="83.8791777" />
      <trkpt lat="28.4763668" lon="83.8791039" />
      <trkpt lat="28.4763318" lon="83.8790519" />
      <trkpt lat="28.4762988" lon="83.879009" />
      <trkpt lat="28.4763321" lon="83.8789574" />
      <trkpt lat="28.4763131" lon="83.8789274" />
      <trkpt lat="28.4762726" lon="83.8788848" />
      <trkpt lat="28.4762128" lon="83.8788714" />
      <trkpt lat="28.4761749" lon="83.8788535" />
      <trkpt lat="28.4761388" lon="83.8788395" />
      <trkpt lat="28.4760669" lon="83.8788463" />
      <trkpt lat="28.4760127" lon="83.8788393" />
      <trkpt lat="28.4759109" lon="83.878786" />
      <trkpt lat="28.4758195" lon="83.878738" />
      <trkpt lat="28.4757593" lon="83.8786545" />
      <trkpt lat="28.4756701" lon="83.8784628" />
      <trkpt lat="28.4755731" lon="83.8784227" />
      <trkpt lat="28.4754793" lon="83.8783937" />
      <trkpt lat="28.4753922" lon="83.8783193" />
      <trkpt lat="28.475332" lon="83.8782424" />
      <trkpt lat="28.4753157" lon="83.8781274" />
      <trkpt lat="28.4752678" lon="83.877947" />
      <trkpt lat="28.4752482" lon="83.877789" />
      <trkpt lat="28.4752237" lon="83.8776612" />
      <trkpt lat="28.4751816" lon="83.8775981" />
      <trkpt lat="28.4751072" lon="83.8775811" />
      <trkpt lat="28.4750402" lon="83.8775223" />
      <trkpt lat="28.474974" lon="83.8774627" />
      <trkpt lat="28.4748324" lon="83.8773324" />
      <trkpt lat="28.4746618" lon="83.8772399" />
      <trkpt lat="28.4745999" lon="83.8771638" />
      <trkpt lat="28.4745076" lon="83.8770867" />
      <trkpt lat="28.4744108" lon="83.876954" />
      <trkpt lat="28.4743036" lon="83.8767711" />
      <trkpt lat="28.4741958" lon="83.8766245" />
      <trkpt lat="28.4741473" lon="83.8764203" />
      <trkpt lat="28.4740247" lon="83.8762164" />
      <trkpt lat="28.4737808" lon="83.8757833" />
      <trkpt lat="28.4736545" lon="83.8755051" />
      <trkpt lat="28.4736493" lon="83.875409" />
      <trkpt lat="28.4736266" lon="83.8752826" />
      <trkpt lat="28.4735731" lon="83.8751043" />
      <trkpt lat="28.4735248" lon="83.874988" />
      <trkpt lat="28.4734435" lon="83.8749276" />
      <trkpt lat="28.4733945" lon="83.8748344" />
      <trkpt lat="28.4733432" lon="83.8739422" />
      <trkpt lat="28.473223" lon="83.8737837" />
    </trkseg>
    <trkseg>
      <trkpt lat="28.4795723" lon="83.8848987" />
      <trkpt lat="28.4795358" lon="83.8849282" />
      <trkpt lat="28.4794933" lon="83.8849577" />
      <trkpt lat="28.4794326" lon="83.8850257" />
      <trkpt lat="28.4794005" lon="83.8850782" />
      <trkpt lat="28.4793648" lon="83.8850797" />
      <trkpt lat="28.4792918" lon="83.884998" />
      <trkpt lat="28.4792422" lon="83.8849685" />
      <trkpt lat="28.4791809" lon="83.884935" />
      <trkpt lat="28.4791432" lon="83.8849336" />
      <trkpt lat="28.4791311" lon="83.8849966" />
      <trkpt lat="28.4791329" lon="83.8850531" />
      <trkpt lat="28.4791468" lon="83.8851325" />
      <trkpt lat="28.47909" lon="83.885325" />
      <trkpt lat="28.4790422" lon="83.8853412" />
      <trkpt lat="28.4790344" lon="83.8854408" />
      <trkpt lat="28.4789841" lon="83.8853658" />
      <trkpt lat="28.4789574" lon="83.8852363" />
      <trkpt lat="28.4788926" lon="83.8851058" />
      <trkpt lat="28.4788463" lon="83.8851082" />
      <trkpt lat="28.4787896" lon="83.8850401" />
      <trkpt lat="28.4788515" lon="83.8849711" />
      <trkpt lat="28.4788344" lon="83.8849524" />
      <trkpt lat="28.47872" lon="83.8848746" />
      <trkpt lat="28.478634" lon="83.8848196" />
      <trkpt lat="28.4785857" lon="83.8847378" />
      <trkpt lat="28.4785302" lon="83.884648" />
      <trkpt lat="28.478476" lon="83.884542" />
      <trkpt lat="28.4784276" lon="83.8844119" />
      <trkpt lat="28.4783864" lon="83.8843475" />
      <trkpt lat="28.4783251" lon="83.8842094" />
      <trkpt lat="28.4782579" lon="83.8841839" />
      <trkpt lat="28.4782179" lon="83.88409" />
      <trkpt lat="28.4781719" lon="83.8838607" />
      <trkpt lat="28.4780776" lon="83.8837588" />
      <trkpt lat="28.4780799" lon="83.8836421" />
      <trkpt lat="28.4780328" lon="83.8835576" />
      <trkpt lat="28.4780611" lon="83.8834222" />
      <trkpt lat="28.4780398" lon="83.8833377" />
    </trkseg>
    <trkseg>
      <trkpt lat="28.4807676" lon="83.8856739" />
      <trkpt lat="28.4806545" lon="83.8856578" />
      <trkpt lat="28.4805719" lon="83.8855626" />
      <trkpt lat="28.480411" lon="83.8854486" />
      <trkpt lat="28.4801723" lon="83.8854472" />
      <trkpt lat="28.4801452" lon="83.8854016" />
      <trkpt lat="28.4801523" lon="83.8853171" />
      <trkpt lat="28.4801287" lon="83.8852099" />
      <trkpt lat="28.4800935" lon="83.8851811" />
      <trkpt lat="28.480025" lon="83.8851656" />
      <trkpt lat="28.4799318" lon="83.8851347" />
      <trkpt lat="28.479913" lon="83.8850355" />
      <trkpt lat="28.4798777" lon="83.8849377" />
      <trkpt lat="28.4798045" lon="83.8848759" />
      <trkpt lat="28.4796679" lon="83.8848705" />
      <trkpt lat="28.4795723" lon="83.8848987" />
    </trkseg>
    <trkseg>
      <trkpt lat="28.480994" lon="83.8852447" />
      <trkpt lat="28.4808721" lon="83.8852146" />
      <trkpt lat="28.4808336" lon="83.88523" />
      <trkpt lat="28.4808914" lon="83.8853561" />
      <trkpt lat="28.4809468" lon="83.8854808" />
      <trkpt lat="28.4809468" lon="83.8855666" />
      <trkpt lat="28.4808996" lon="83.8856578" />
      <trkpt lat="28.4807676" lon="83.8856739" />
    </trkseg>
    <trkseg>
      <trkpt lat="28.484481" lon="83.8883924" />
      <trkpt lat="28.4843983" lon="83.8883507" />
      <trkpt lat="28.4842922" lon="83.8882327" />
      <trkpt lat="28.4842191" lon="83.888171" />
      <trkpt lat="28.4841067" lon="83.8880072" />
      <trkpt lat="28.4840376" lon="83.8879296" />
      <trkpt lat="28.4840493" lon="83.8878062" />
      <trkpt lat="28.4840408" lon="83.8876496" />
      <trkpt lat="28.483823" lon="83.8875031" />
      <trkpt lat="28.4837476" lon="83.8873261" />
      <trkpt lat="28.4836674" lon="83.8873154" />
      <trkpt lat="28.4835496" lon="83.887192" />
      <trkpt lat="28.4834458" lon="83.8869828" />
      <trkpt lat="28.4833657" lon="83.886838" />
      <trkpt lat="28.4832434" lon="83.8867074" />
      <trkpt lat="28.4829955" lon="83.8865858" />
      <trkpt lat="28.4828116" lon="83.886492" />
      <trkpt lat="28.4826678" lon="83.8864678" />
      <trkpt lat="28.4825665" lon="83.8864678" />
      <trkpt lat="28.4825028" lon="83.8865134" />
      <trkpt lat="28.4824509" lon="83.8864839" />
      <trkpt lat="28.4824533" lon="83.8863525" />
      <trkpt lat="28.4824533" lon="83.8862345" />
      <trkpt lat="28.4823778" lon="83.8860878" />
      <trkpt lat="28.4822883" lon="83.8860038" />
      <trkpt lat="28.482161" lon="83.886044" />
      <trkpt lat="28.4821327" lon="83.8859421" />
      <trkpt lat="28.4821138" lon="83.8858724" />
      <trkpt lat="28.4820454" lon="83.8857087" />
      <trkpt lat="28.481944" lon="83.8856873" />
      <trkpt lat="28.4817961" lon="83.8859059" />
      <trkpt lat="28.4816894" lon="83.8858402" />
      <trkpt lat="28.4816022" lon="83.8857651" />
      <trkpt lat="28.4815456" lon="83.8855934" />
      <trkpt lat="28.4815551" lon="83.8853949" />
      <trkpt lat="28.4815032" lon="83.8852179" />
      <trkpt lat="28.4814079" lon="83.8851833" />
      <trkpt lat="28.481192" lon="83.8852608" />
      <trkpt lat="28.480994" lon="83.8852447" />
    </trkseg>
    <trkseg>
      <trkpt lat="28.4845251" lon="83.8884571" />
      <trkpt lat="28.484481" lon="83.8883924" />
    </trkseg>
    <trkseg>
      <trkpt lat="28.4886767" lon="83.8920692" />
      <trkpt lat="28.4886582" lon="83.8920522" />
      <trkpt lat="28.4885768" lon="83.8918723" />
      <trkpt lat="28.4884256" lon="83.8917552" />
      <trkpt lat="28.4883808" lon="83.8915893" />
      <trkpt lat="28.4881978" lon="83.8914153" />
      <trkpt lat="28.4881783" lon="83.8912517" />
      <trkpt lat="28.4881184" lon="83.8911509" />
      <trkpt lat="28.4879865" lon="83.8910723" />
      <trkpt lat="28.4878231" lon="83.8909031" />
      <trkpt lat="28.4876799" lon="83.890577" />
      <trkpt lat="28.4875479" lon="83.8904509" />
      <trkpt lat="28.4873948" lon="83.8903462" />
      <trkpt lat="28.4872763" lon="83.8902761" />
      <trkpt lat="28.4872312" lon="83.8901711" />
      <trkpt lat="28.487145" lon="83.8900102" />
      <trkpt lat="28.4870214" lon="83.889854" />
      <trkpt lat="28.4869273" lon="83.8897693" />
      <trkpt lat="28.4868539" lon="83.8896805" />
      <trkpt lat="28.4867581" lon="83.8895872" />
      <trkpt lat="28.4866825" lon="83.8895618" />
      <trkpt lat="28.4866143" lon="83.8895489" />
      <trkpt lat="28.4865507" lon="83.8895309" />
      <trkpt lat="28.4864579" lon="83.8895007" />
      <trkpt lat="28.4864135" lon="83.8893895" />
      <trkpt lat="28.486322" lon="83.8893217" />
      <trkpt lat="28.4862362" lon="83.8893026" />
      <trkpt lat="28.4861209" lon="83.8892388" />
      <trkpt lat="28.4859828" lon="83.8891147" />
      <trkpt lat="28.4859196" lon="83.8890393" />
      <trkpt lat="28.4858456" lon="83.8890362" />
      <trkpt lat="28.4857669" lon="83.8890565" />
      <trkpt lat="28.4856582" lon="83.8890402" />
      <trkpt lat="28.4855816" lon="83.8889944" />
      <trkpt lat="28.4854515" lon="83.8889544" />
      <trkpt lat="28.485291" lon="83.8889164" />
      <trkpt lat="28.4852014" lon="83.8888397" />
      <trkpt lat="28.4851244" lon="83.8887879" />
      <trkpt lat="28.485014" lon="83.8887754" />
      <trkpt lat="28.4848768" lon="83.8887742" />
      <trkpt lat="28.4847018" lon="83.8887911" />
      <trkpt lat="28.4846328" lon="83.8886031" />
      <trkpt lat="28.4845251" lon="83.8884571" />
    </trkseg>
    <trkseg>
      <trkpt lat="28.4886767" lon="83.8920692" />
      <trkpt lat="28.4887207" lon="83.8922828" />
      <trkpt lat="28.488815" lon="83.8924062" />
      <trkpt lat="28.4889199" lon="83.892362" />
      <trkpt lat="28.4889989" lon="83.8922158" />
      <trkpt lat="28.4890325" lon="83.8921771" />
    </trkseg>
    <trkseg>
      <trkpt lat="28.4932887" lon="83.8928401" />
      <trkpt lat="28.4932805" lon="83.8928272" />
      <trkpt lat="28.4932032" lon="83.8927844" />
      <trkpt lat="28.4931214" lon="83.8928122" />
      <trkpt lat="28.4930594" lon="83.8928246" />
      <trkpt lat="28.493017" lon="83.892779" />
      <trkpt lat="28.4929651" lon="83.892779" />
      <trkpt lat="28.4929156" lon="83.8926852" />
      <trkpt lat="28.4928389" lon="83.8925971" />
      <trkpt lat="28.4927742" lon="83.8925484" />
      <trkpt lat="28.4927081" lon="83.8925356" />
      <trkpt lat="28.4926047" lon="83.8924954" />
      <trkpt lat="28.4925338" lon="83.8924698" />
      <trkpt lat="28.4924876" lon="83.8924493" />
      <trkpt lat="28.4924461" lon="83.8924786" />
      <trkpt lat="28.4924257" lon="83.8925367" />
      <trkpt lat="28.4923469" lon="83.8925401" />
      <trkpt lat="28.4922693" lon="83.8924996" />
      <trkpt lat="28.4921997" lon="83.8924552" />
      <trkpt lat="28.4921272" lon="83.8924245" />
      <trkpt lat="28.4920479" lon="83.8924494" />
      <trkpt lat="28.4919067" lon="83.8925125" />
      <trkpt lat="28.4917983" lon="83.8925511" />
      <trkpt lat="28.491737" lon="83.8925537" />
      <trkpt lat="28.4916026" lon="83.8925081" />
      <trkpt lat="28.4914399" lon="83.8924786" />
      <trkpt lat="28.4912396" lon="83.8924411" />
      <trkpt lat="28.4910784" lon="83.8924006" />
      <trkpt lat="28.4909968" lon="83.8924277" />
      <trkpt lat="28.4909614" lon="83.8924813" />
      <trkpt lat="28.4909359" lon="83.8926136" />
      <trkpt lat="28.4909048" lon="83.8926557" />
      <trkpt lat="28.4908152" lon="83.8926637" />
      <trkpt lat="28.4907563" lon="83.8927147" />
      <trkpt lat="28.4907206" lon="83.8928052" />
      <trkpt lat="28.4906974" lon="83.8928515" />
      <trkpt lat="28.4905477" lon="83.8928596" />
      <trkpt lat="28.4904474" lon="83.8928541" />
      <trkpt lat="28.4903422" lon="83.892825" />
      <trkpt lat="28.49024" lon="83.8926584" />
      <trkpt lat="28.4902141" lon="83.8925859" />
      <trkpt lat="28.4901104" lon="83.892535" />
      <trkpt lat="28.4900821" lon="83.8924319" />
      <trkpt lat="28.4900321" lon="83.8923675" />
      <trkpt lat="28.4899277" lon="83.8923646" />
      <trkpt lat="28.4898086" lon="83.8924046" />
      <trkpt lat="28.4897129" lon="83.8923804" />
      <trkpt lat="28.4896557" lon="83.8923698" />
      <trkpt lat="28.4895985" lon="83.892384" />
      <trkpt lat="28.4895528" lon="83.8924012" />
      <trkpt lat="28.4894204" lon="83.8923594" />
      <trkpt lat="28.4893279" lon="83.8922552" />
      <trkpt lat="28.4892451" lon="83.8921954" />
      <trkpt lat="28.4891509" lon="83.8921648" />
      <trkpt lat="28.4890684" lon="83.8921675" />
      <trkpt lat="28.4890325" lon="83.8921771" />
    </trkseg>
    <trkseg>
      <trkpt lat="28.4933228" lon="83.8928969" />
      <trkpt lat="28.4932887" lon="83.8928401" />
    </trkseg>
    <trkseg>
      <trkpt lat="28.4944469" lon="83.8942962" />
      <trkpt lat="28.4943632" lon="83.8943863" />
      <trkpt lat="28.4943267" lon="83.8943932" />
      <trkpt lat="28.494308" lon="83.8943321" />
      <trkpt lat="28.4942593" lon="83.8942838" />
      <trkpt lat="28.4941744" lon="83.8941979" />
      <trkpt lat="28.4941399" lon="83.8941029" />
      <trkpt lat="28.49415" lon="83.8940205" />
      <trkpt lat="28.494146" lon="83.8939136" />
      <trkpt lat="28.4941915" lon="83.8938299" />
      <trkpt lat="28.4942002" lon="83.893686" />
      <trkpt lat="28.4941408" lon="83.8936065" />
      <trkpt lat="28.4940141" lon="83.893595" />
      <trkpt lat="28.4939277" lon="83.8935523" />
      <trkpt lat="28.4938114" lon="83.8935086" />
      <trkpt lat="28.4937222" lon="83.8935117" />
      <trkpt lat="28.4936417" lon="83.8934764" />
      <trkpt lat="28.4935804" lon="83.8934108" />
      <trkpt lat="28.4935431" lon="83.8933659" />
      <trkpt lat="28.4935046" lon="83.8932639" />
      <trkpt lat="28.493477" lon="83.8932087" />
      <trkpt lat="28.4933988" lon="83.8931285" />
      <trkpt lat="28.4933469" lon="83.8930669" />
      <trkpt lat="28.4933344" lon="83.8929836" />
      <trkpt lat="28.4933228" lon="83.8928969" />
    </trkseg>
    <trkseg>
      <trkpt lat="28.4945101" lon="83.8943283" />
      <trkpt lat="28.4944469" lon="83.8942962" />
    </trkseg>
    <trkseg>
      <trkpt lat="28.4949358" lon="83.8949331" />
      <trkpt lat="28.4948674" lon="83.8949479" />
      <trkpt lat="28.4947958" lon="83.8949194" />
      <trkpt lat="28.4947534" lon="83.8948857" />
      <trkpt lat="28.4946826" lon="83.8948654" />
      <trkpt lat="28.4946748" lon="83.8947864" />
      <trkpt lat="28.4946246" lon="83.8947859" />
      <trkpt lat="28.4946069" lon="83.8947591" />
      <trkpt lat="28.4946066" lon="83.8946302" />
      <trkpt lat="28.494532" lon="83.8943394" />
      <trkpt lat="28.4945101" lon="83.8943283" />
    </trkseg>
    <trkseg>
      <trkpt lat="28.4949813" lon="83.8949917" />
      <trkpt lat="28.4949358" lon="83.8949331" />
    </trkseg>
    <trkseg>
      <trkpt lat="28.5021913" lon="83.9012923" />
      <trkpt lat="28.5020569" lon="83.9011192" />
      <trkpt lat="28.5019791" lon="83.9010714" />
      <trkpt lat="28.5019368" lon="83.9010859" />
      <trkpt lat="28.5018731" lon="83.9010939" />
      <trkpt lat="28.5017718" lon="83.9010698" />
      <trkpt lat="28.5016303" lon="83.9009947" />
      <trkpt lat="28.5013121" lon="83.9008525" />
      <trkpt lat="28.5011188" lon="83.9007694" />
      <trkpt lat="28.5010363" lon="83.900705" />
      <trkpt lat="28.500942" lon="83.9006808" />
      <trkpt lat="28.5008737" lon="83.900654" />
      <trkpt lat="28.5007841" lon="83.9006621" />
      <trkpt lat="28.5007063" lon="83.9006513" />
      <trkpt lat="28.500605" lon="83.9006084" />
      <trkpt lat="28.5004777" lon="83.9005092" />
      <trkpt lat="28.5003551" lon="83.9004743" />
      <trkpt lat="28.5002561" lon="83.9004287" />
      <trkpt lat="28.5000935" lon="83.9003938" />
      <trkpt lat="28.4998507" lon="83.9003161" />
      <trkpt lat="28.4997328" lon="83.9002946" />
      <trkpt lat="28.4996267" lon="83.9002705" />
      <trkpt lat="28.4994429" lon="83.9001927" />
      <trkpt lat="28.4993478" lon="83.9001405" />
      <trkpt lat="28.4992472" lon="83.9000854" />
      <trkpt lat="28.4991718" lon="83.900013" />
      <trkpt lat="28.4990657" lon="83.8999781" />
      <trkpt lat="28.4989785" lon="83.8999245" />
      <trkpt lat="28.4989197" lon="83.8998261" />
      <trkpt lat="28.4988607" lon="83.8996911" />
      <trkpt lat="28.4987764" lon="83.8996095" />
      <trkpt lat="28.4986756" lon="83.8995677" />
      <trkpt lat="28.4985883" lon="83.8995207" />
      <trkpt lat="28.4984734" lon="83.8994406" />
      <trkpt lat="28.4983492" lon="83.8994121" />
      <trkpt lat="28.4982324" lon="83.8993119" />
      <trkpt lat="28.4981779" lon="83.8992277" />
      <trkpt lat="28.4981623" lon="83.8991597" />
      <trkpt lat="28.4980801" lon="83.8990629" />
      <trkpt lat="28.4980188" lon="83.8989822" />
      <trkpt lat="28.4979802" lon="83.8989039" />
      <trkpt lat="28.4979549" lon="83.8988271" />
      <trkpt lat="28.4979134" lon="83.8987517" />
      <trkpt lat="28.4978544" lon="83.8987574" />
      <trkpt lat="28.4978613" lon="83.8986979" />
      <trkpt lat="28.4978223" lon="83.8987347" />
      <trkpt lat="28.4978033" lon="83.8987101" />
      <trkpt lat="28.4977613" lon="83.8987512" />
      <trkpt lat="28.4976689" lon="83.8987105" />
      <trkpt lat="28.4976355" lon="83.8986494" />
      <trkpt lat="28.4975985" lon="83.8985835" />
      <trkpt lat="28.4975485" lon="83.8985806" />
      <trkpt lat="28.4974803" lon="83.8985255" />
      <trkpt lat="28.4973935" lon="83.8985234" />
      <trkpt lat="28.4973594" lon="83.8984858" />
      <trkpt lat="28.4973772" lon="83.8983271" />
      <trkpt lat="28.4973733" lon="83.8982515" />
      <trkpt lat="28.4973235" lon="83.8981928" />
      <trkpt lat="28.4972905" lon="83.8981166" />
      <trkpt lat="28.497249" lon="83.8980674" />
      <trkpt lat="28.497218" lon="83.8979774" />
      <trkpt lat="28.497203" lon="83.8978409" />
      <trkpt lat="28.4971656" lon="83.8977184" />
      <trkpt lat="28.497126" lon="83.8975851" />
      <trkpt lat="28.4971179" lon="83.8974768" />
      <trkpt lat="28.4971173" lon="83.8974361" />
      <trkpt lat="28.4971328" lon="83.8974193" />
      <trkpt lat="28.4971626" lon="83.8973105" />
      <trkpt lat="28.4971493" lon="83.8972127" />
      <trkpt lat="28.4971345" lon="83.8971726" />
      <trkpt lat="28.4971074" lon="83.897099" />
      <trkpt lat="28.497015" lon="83.8970572" />
      <trkpt lat="28.4969419" lon="83.8970545" />
      <trkpt lat="28.4968642" lon="83.8970601" />
      <trkpt lat="28.4968168" lon="83.897052" />
      <trkpt lat="28.4968004" lon="83.8970008" />
      <trkpt lat="28.496724" lon="83.896909" />
      <trkpt lat="28.4966555" lon="83.8968589" />
      <trkpt lat="28.4966256" lon="83.8967688" />
      <trkpt lat="28.4965615" lon="83.8967299" />
      <trkpt lat="28.4965353" lon="83.8966502" />
      <trkpt lat="28.4965137" lon="83.8966009" />
      <trkpt lat="28.4964894" lon="83.8965035" />
      <trkpt lat="28.4964789" lon="83.8964522" />
      <trkpt lat="28.496408" lon="83.8964235" />
      <trkpt lat="28.4963641" lon="83.8963312" />
      <trkpt lat="28.4962685" lon="83.8962637" />
      <trkpt lat="28.4962622" lon="83.8961841" />
      <trkpt lat="28.4962293" lon="83.8961312" />
      <trkpt lat="28.4961659" lon="83.896132" />
      <trkpt lat="28.4961084" lon="83.8961605" />
      <trkpt lat="28.4960536" lon="83.8961105" />
      <trkpt lat="28.4960027" lon="83.8960792" />
      <trkpt lat="28.4959483" lon="83.8959983" />
      <trkpt lat="28.4959208" lon="83.8959121" />
      <trkpt lat="28.4958743" lon="83.8958827" />
      <trkpt lat="28.4958273" lon="83.8957867" />
      <trkpt lat="28.4958276" lon="83.8957161" />
      <trkpt lat="28.495786" lon="83.8956297" />
      <trkpt lat="28.4957368" lon="83.8956094" />
      <trkpt lat="28.4957178" lon="83.8956509" />
      <trkpt lat="28.4956513" lon="83.8956616" />
      <trkpt lat="28.4955842" lon="83.8955931" />
      <trkpt lat="28.4955203" lon="83.8955688" />
      <trkpt lat="28.4954779" lon="83.8955289" />
      <trkpt lat="28.4954579" lon="83.8954477" />
      <trkpt lat="28.4954073" lon="83.8953942" />
      <trkpt lat="28.4953477" lon="83.8953884" />
      <trkpt lat="28.4953152" lon="83.8953524" />
      <trkpt lat="28.4952542" lon="83.8953123" />
      <trkpt lat="28.4951711" lon="83.8952133" />
      <trkpt lat="28.4951017" lon="83.8951904" />
      <trkpt lat="28.4949984" lon="83.895146" />
      <trkpt lat="28.4949813" lon="83.8949917" />
    </trkseg>
    <trkseg>
      <trkpt lat="28.5022324" lon="83.9013167" />
      <trkpt lat="28.5021913" lon="83.9012923" />
    </trkseg>
    <trkseg>
      <trkpt lat="28.5025685" lon="83.9015625" />
      <trkpt lat="28.5024883" lon="83.9015284" />
      <trkpt lat="28.5024058" lon="83.9014962" />
      <trkpt lat="28.5023351" lon="83.9014453" />
      <trkpt lat="28.502288" lon="83.9013916" />
      <trkpt lat="28.5022324" lon="83.9013167" />
    </trkseg>
    <trkseg>
      <trkpt lat="28.5026058" lon="83.9015945" />
      <trkpt lat="28.5025685" lon="83.9015625" />
    </trkseg>
    <trkseg>
      <trkpt lat="28.5189638" lon="83.9075849" />
      <trkpt lat="28.5188208" lon="83.9075141" />
      <trkpt lat="28.5186587" lon="83.9075012" />
      <trkpt lat="28.518596" lon="83.907519" />
      <trkpt lat="28.5185423" lon="83.9075592" />
      <trkpt lat="28.5185045" lon="83.9076445" />
      <trkpt lat="28.518466" lon="83.9077004" />
      <trkpt lat="28.5183552" lon="83.9077699" />
      <trkpt lat="28.5183105" lon="83.9077776" />
      <trkpt lat="28.5182336" lon="83.9077609" />
      <trkpt lat="28.5181295" lon="83.9077187" />
      <trkpt lat="28.517946" lon="83.9076451" />
      <trkpt lat="28.5178368" lon="83.9076411" />
      <trkpt lat="28.5177202" lon="83.9076211" />
      <trkpt lat="28.5175131" lon="83.9075846" />
      <trkpt lat="28.5173558" lon="83.9075882" />
      <trkpt lat="28.5171943" lon="83.9075712" />
      <trkpt lat="28.5170644" lon="83.9075322" />
      <trkpt lat="28.5168618" lon="83.9074652" />
      <trkpt lat="28.5167" lon="83.9074203" />
      <trkpt lat="28.5166148" lon="83.9074134" />
      <trkpt lat="28.5163601" lon="83.9072725" />
      <trkpt lat="28.5159796" lon="83.9072066" />
      <trkpt lat="28.5158806" lon="83.9070618" />
      <trkpt lat="28.5157866" lon="83.9070521" />
      <trkpt lat="28.515752" lon="83.907012" />
      <trkpt lat="28.5155967" lon="83.9069645" />
      <trkpt lat="28.5154552" lon="83.9068748" />
      <trkpt lat="28.5153902" lon="83.906807" />
      <trkpt lat="28.5153403" lon="83.9067166" />
      <trkpt lat="28.5151641" lon="83.9066112" />
      <trkpt lat="28.514985" lon="83.9065522" />
      <trkpt lat="28.5148295" lon="83.9065629" />
      <trkpt lat="28.5146935" lon="83.9064254" />
      <trkpt lat="28.5146702" lon="83.9064055" />
      <trkpt lat="28.5146604" lon="83.9063733" />
      <trkpt lat="28.5146524" lon="83.9063035" />
      <trkpt lat="28.514623" lon="83.9062585" />
      <trkpt lat="28.5145931" lon="83.9062429" />
      <trkpt lat="28.5145514" lon="83.9062439" />
      <trkpt lat="28.5144928" lon="83.9062586" />
      <trkpt lat="28.5143795" lon="83.906295" />
      <trkpt lat="28.5143042" lon="83.9062981" />
      <trkpt lat="28.514202" lon="83.9063559" />
      <trkpt lat="28.5140905" lon="83.9064496" />
      <trkpt lat="28.5139868" lon="83.9064939" />
      <trkpt lat="28.5138295" lon="83.9065063" />
      <trkpt lat="28.5136676" lon="83.9064751" />
      <trkpt lat="28.5135241" lon="83.9063477" />
      <trkpt lat="28.5134552" lon="83.9062867" />
      <trkpt lat="28.5133258" lon="83.9061177" />
      <trkpt lat="28.5132035" lon="83.9060408" />
      <trkpt lat="28.5130615" lon="83.9060229" />
      <trkpt lat="28.5128882" lon="83.9059895" />
      <trkpt lat="28.5126403" lon="83.9059416" />
      <trkpt lat="28.5124463" lon="83.9058458" />
      <trkpt lat="28.5123443" lon="83.9057297" />
      <trkpt lat="28.5122408" lon="83.9056583" />
      <trkpt lat="28.5121156" lon="83.9057253" />
      <trkpt lat="28.5119971" lon="83.905772" />
      <trkpt lat="28.5119646" lon="83.9057626" />
      <trkpt lat="28.5119056" lon="83.9057158" />
      <trkpt lat="28.5118176" lon="83.9056716" />
      <trkpt lat="28.5117935" lon="83.9056129" />
      <trkpt lat="28.5117313" lon="83.9055687" />
      <trkpt lat="28.5116116" lon="83.9054501" />
      <trkpt lat="28.5115311" lon="83.9054178" />
      <trkpt lat="28.5114594" lon="83.9053725" />
      <trkpt lat="28.5113037" lon="83.9052177" />
      <trkpt lat="28.5112107" lon="83.905043" />
      <trkpt lat="28.5111583" lon="83.9050007" />
      <trkpt lat="28.5111046" lon="83.9049573" />
      <trkpt lat="28.5109446" lon="83.9048881" />
      <trkpt lat="28.51086" lon="83.9048404" />
      <trkpt lat="28.5108089" lon="83.90477" />
      <trkpt lat="28.5107527" lon="83.9047011" />
      <trkpt lat="28.5106867" lon="83.9046613" />
      <trkpt lat="28.5105937" lon="83.9046428" />
      <trkpt lat="28.5104928" lon="83.9046501" />
      <trkpt lat="28.5103151" lon="83.9046889" />
      <trkpt lat="28.5102235" lon="83.9046907" />
      <trkpt lat="28.5100714" lon="83.9046527" />
      <trkpt lat="28.5099387" lon="83.9046557" />
      <trkpt lat="28.5098093" lon="83.9046854" />
      <trkpt lat="28.5097169" lon="83.9046993" />
      <trkpt lat="28.5095871" lon="83.9046739" />
      <trkpt lat="28.5094781" lon="83.904676" />
      <trkpt lat="28.50935" lon="83.9047181" />
      <trkpt lat="28.5092311" lon="83.9047386" />
      <trkpt lat="28.5091511" lon="83.9047562" />
      <trkpt lat="28.509106" lon="83.9047469" />
      <trkpt lat="28.5090018" lon="83.9047213" />
      <trkpt lat="28.5089207" lon="83.9047185" />
      <trkpt lat="28.5086874" lon="83.9047444" />
      <trkpt lat="28.5085621" lon="83.9047778" />
      <trkpt lat="28.5082103" lon="83.9046226" />
      <trkpt lat="28.5079442" lon="83.9044115" />
      <trkpt lat="28.5078026" lon="83.9044091" />
      <trkpt lat="28.5074877" lon="83.9043315" />
      <trkpt lat="28.5071635" lon="83.9043502" />
      <trkpt lat="28.5069862" lon="83.9043281" />
      <trkpt lat="28.5068084" lon="83.90431" />
      <trkpt lat="28.5064501" lon="83.9042049" />
      <trkpt lat="28.5061066" lon="83.9040222" />
      <trkpt lat="28.5059574" lon="83.9039086" />
      <trkpt lat="28.5057141" lon="83.9037988" />
      <trkpt lat="28.5056077" lon="83.9037114" />
      <trkpt lat="28.505458" lon="83.903503" />
      <trkpt lat="28.5052367" lon="83.9033389" />
      <trkpt lat="28.5051613" lon="83.9032316" />
      <trkpt lat="28.5050811" lon="83.9031646" />
      <trkpt lat="28.5049482" lon="83.9031216" />
      <trkpt lat="28.5048566" lon="83.9031074" />
      <trkpt lat="28.5047973" lon="83.9031047" />
      <trkpt lat="28.5047283" lon="83.9031058" />
      <trkpt lat="28.5046802" lon="83.9031124" />
      <trkpt lat="28.5046453" lon="83.9030902" />
      <trkpt lat="28.5046301" lon="83.9030404" />
      <trkpt lat="28.5045767" lon="83.9029874" />
      <trkpt lat="28.50455" lon="83.9029469" />
      <trkpt lat="28.5045135" lon="83.9029068" />
      <trkpt lat="28.5044411" lon="83.9028061" />
      <trkpt lat="28.5043809" lon="83.9027239" />
      <trkpt lat="28.5042751" lon="83.902519" />
      <trkpt lat="28.5042071" lon="83.9024151" />
      <trkpt lat="28.5042039" lon="83.9023621" />
      <trkpt lat="28.5041749" lon="83.9023183" />
      <trkpt lat="28.5041008" lon="83.9022708" />
      <trkpt lat="28.5040457" lon="83.9022115" />
      <trkpt lat="28.5039009" lon="83.9020414" />
      <trkpt lat="28.5038036" lon="83.9019549" />
      <trkpt lat="28.5037164" lon="83.9018583" />
      <trkpt lat="28.5035568" lon="83.9017828" />
      <trkpt lat="28.5034137" lon="83.9017464" />
      <trkpt lat="28.5033039" lon="83.9017001" />
      <trkpt lat="28.50325" lon="83.9016698" />
      <trkpt lat="28.5031906" lon="83.9016826" />
      <trkpt lat="28.5031407" lon="83.9017105" />
      <trkpt lat="28.5030611" lon="83.9017135" />
      <trkpt lat="28.5029927" lon="83.9017403" />
      <trkpt lat="28.5029126" lon="83.9017537" />
      <trkpt lat="28.5028065" lon="83.9017699" />
      <trkpt lat="28.502766" lon="83.9017642" />
      <trkpt lat="28.5027227" lon="83.9017354" />
      <trkpt lat="28.5026581" lon="83.9016587" />
      <trkpt lat="28.5026058" lon="83.9015945" />
    </trkseg>
    <trkseg>
      <trkpt lat="28.5230622" lon="83.9082326" />
      <trkpt lat="28.5230121" lon="83.9082286" />
      <trkpt lat="28.5228489" lon="83.9082108" />
      <trkpt lat="28.5226493" lon="83.9081857" />
      <trkpt lat="28.5225966" lon="83.9081946" />
      <trkpt lat="28.5225193" lon="83.9082077" />
      <trkpt lat="28.5221095" lon="83.9081964" />
      <trkpt lat="28.5220004" lon="83.9081854" />
      <trkpt lat="28.5218007" lon="83.9081033" />
      <trkpt lat="28.5216245" lon="83.9080707" />
      <trkpt lat="28.5214574" lon="83.9080687" />
      <trkpt lat="28.52125" lon="83.9081036" />
      <trkpt lat="28.5210771" lon="83.9081112" />
      <trkpt lat="28.520898" lon="83.9080733" />
      <trkpt lat="28.5207477" lon="83.9080526" />
    </trkseg>
    <trkseg>
      <trkpt lat="28.5231338" lon="83.9082801" />
      <trkpt lat="28.5230622" lon="83.9082326" />
    </trkseg>
    <trkseg>
      <trkpt lat="28.5308115" lon="83.8777275" />
      <trkpt lat="28.5307546" lon="83.8778217" />
      <trkpt lat="28.5306904" lon="83.877996" />
      <trkpt lat="28.5306461" lon="83.8782589" />
      <trkpt lat="28.5306344" lon="83.8782958" />
      <trkpt lat="28.5305961" lon="83.8782944" />
      <trkpt lat="28.5305778" lon="83.8783186" />
      <trkpt lat="28.5305637" lon="83.8783649" />
      <trkpt lat="28.5305607" lon="83.878399" />
      <trkpt lat="28.5305731" lon="83.8784722" />
      <trkpt lat="28.5306226" lon="83.8785552" />
      <trkpt lat="28.5306521" lon="83.878664" />
      <trkpt lat="28.5306873" lon="83.878715" />
      <trkpt lat="28.5307476" lon="83.8788088" />
      <trkpt lat="28.5307905" lon="83.8789519" />
      <trkpt lat="28.5307986" lon="83.8791153" />
      <trkpt lat="28.5308353" lon="83.8792411" />
      <trkpt lat="28.5308685" lon="83.8793534" />
      <trkpt lat="28.5309198" lon="83.87949" />
      <trkpt lat="28.5309489" lon="83.8795904" />
      <trkpt lat="28.5309538" lon="83.8797757" />
      <trkpt lat="28.530973" lon="83.879912" />
      <trkpt lat="28.5310168" lon="83.8801105" />
      <trkpt lat="28.531037" lon="83.8804021" />
      <trkpt lat="28.5310466" lon="83.8804624" />
      <trkpt lat="28.5310315" lon="83.8805313" />
      <trkpt lat="28.5310005" lon="83.8805796" />
      <trkpt lat="28.5310007" lon="83.8806251" />
      <trkpt lat="28.5309948" lon="83.8807168" />
      <trkpt lat="28.5309542" lon="83.880832" />
      <trkpt lat="28.5309331" lon="83.8809971" />
      <trkpt lat="28.5309421" lon="83.8810984" />
      <trkpt lat="28.5309876" lon="83.881278" />
      <trkpt lat="28.5310281" lon="83.8814228" />
      <trkpt lat="28.5310308" lon="83.8814791" />
      <trkpt lat="28.5310077" lon="83.8815225" />
      <trkpt lat="28.5309795" lon="83.8815889" />
      <trkpt lat="28.530985" lon="83.881695" />
      <trkpt lat="28.5310102" lon="83.8818404" />
      <trkpt lat="28.5310291" lon="83.8820502" />
      <trkpt lat="28.5310174" lon="83.8822111" />
      <trkpt lat="28.5310008" lon="83.8823131" />
      <trkpt lat="28.5309938" lon="83.8824123" />
      <trkpt lat="28.5309796" lon="83.8825679" />
      <trkpt lat="28.5309985" lon="83.8827181" />
      <trkpt lat="28.5309631" lon="83.8828924" />
      <trkpt lat="28.5309423" lon="83.8830467" />
      <trkpt lat="28.5309231" lon="83.8832492" />
      <trkpt lat="28.5309089" lon="83.8834262" />
      <trkpt lat="28.5308948" lon="83.8835576" />
      <trkpt lat="28.5308972" lon="83.8838178" />
      <trkpt lat="28.5308665" lon="83.8841696" />
      <trkpt lat="28.5308367" lon="83.8843376" />
      <trkpt lat="28.5307628" lon="83.8846299" />
      <trkpt lat="28.5306866" lon="83.8848722" />
      <trkpt lat="28.5306238" lon="83.8850865" />
      <trkpt lat="28.5306568" lon="83.8854352" />
      <trkpt lat="28.5305838" lon="83.8856122" />
      <trkpt lat="28.5305625" lon="83.8858697" />
      <trkpt lat="28.5305036" lon="83.8860387" />
      <trkpt lat="28.5304544" lon="83.8861625" />
      <trkpt lat="28.5303999" lon="83.8863686" />
      <trkpt lat="28.530334" lon="83.8864785" />
      <trkpt lat="28.5302592" lon="83.8866125" />
      <trkpt lat="28.5302495" lon="83.8867358" />
      <trkpt lat="28.5302774" lon="83.8869211" />
      <trkpt lat="28.5302586" lon="83.8872001" />
      <trkpt lat="28.5302306" lon="83.8874256" />
      <trkpt lat="28.5302067" lon="83.8876104" />
      <trkpt lat="28.5301502" lon="83.8878331" />
      <trkpt lat="28.5300689" lon="83.8881118" />
      <trkpt lat="28.5299828" lon="83.8883668" />
      <trkpt lat="28.5299462" lon="83.8884361" />
      <trkpt lat="28.5298683" lon="83.8885477" />
      <trkpt lat="28.5297873" lon="83.8888032" />
      <trkpt lat="28.5297552" lon="83.8889571" />
      <trkpt lat="28.5297555" lon="83.8890551" />
      <trkpt lat="28.5297378" lon="83.8891371" />
      <trkpt lat="28.5297172" lon="83.8892254" />
      <trkpt lat="28.5296948" lon="83.8893178" />
      <trkpt lat="28.5296845" lon="83.8893686" />
      <trkpt lat="28.5296951" lon="83.8895103" />
      <trkpt lat="28.5296971" lon="83.8895423" />
      <trkpt lat="28.5296807" lon="83.8896166" />
      <trkpt lat="28.5296623" lon="83.889713" />
      <trkpt lat="28.5296209" lon="83.8898796" />
      <trkpt lat="28.5296163" lon="83.8899571" />
      <trkpt lat="28.5296016" lon="83.890049" />
      <trkpt lat="28.5296" lon="83.8902054" />
      <trkpt lat="28.5295817" lon="83.8903739" />
      <trkpt lat="28.5295737" lon="83.8905089" />
      <trkpt lat="28.5295803" lon="83.8906269" />
      <trkpt lat="28.5295748" lon="83.8907172" />
      <trkpt lat="28.5295718" lon="83.8908164" />
      <trkpt lat="28.529582" lon="83.8909649" />
      <trkpt lat="28.5295774" lon="83.891087" />
      <trkpt lat="28.5295653" lon="83.891319" />
      <trkpt lat="28.529551" lon="83.891453" />
      <trkpt lat="28.5295557" lon="83.8916787" />
      <trkpt lat="28.5295445" lon="83.8918916" />
      <trkpt lat="28.5295238" lon="83.8920461" />
      <trkpt lat="28.5294774" lon="83.8921181" />
      <trkpt lat="28.5294313" lon="83.8923858" />
      <trkpt lat="28.5294095" lon="83.8925647" />
      <trkpt lat="28.5294394" lon="83.8927589" />
      <trkpt lat="28.5294221" lon="83.8928874" />
      <trkpt lat="28.5294174" lon="83.8930072" />
      <trkpt lat="28.5294375" lon="83.8931584" />
      <trkpt lat="28.5294204" lon="83.8932919" />
      <trkpt lat="28.5294198" lon="83.8934378" />
      <trkpt lat="28.5293913" lon="83.8935483" />
      <trkpt lat="28.5293298" lon="83.8938078" />
      <trkpt lat="28.5292788" lon="83.8940957" />
      <trkpt lat="28.5292392" lon="83.8944266" />
      <trkpt lat="28.5292347" lon="83.8946953" />
      <trkpt lat="28.5291855" lon="83.8949378" />
      <trkpt lat="28.5291267" lon="83.8950823" />
      <trkpt lat="28.5291752" lon="83.895235" />
      <trkpt lat="28.5291827" lon="83.8954188" />
      <trkpt lat="28.5292151" lon="83.8954975" />
      <trkpt lat="28.5292085" lon="83.8956652" />
      <trkpt lat="28.5292079" lon="83.8958602" />
      <trkpt lat="28.5291876" lon="83.8959715" />
      <trkpt lat="28.5291796" lon="83.8961556" />
      <trkpt lat="28.5291692" lon="83.8962656" />
      <trkpt lat="28.5291496" lon="83.8963501" />
      <trkpt lat="28.5291326" lon="83.8964223" />
      <trkpt lat="28.5290787" lon="83.8964883" />
      <trkpt lat="28.5290617" lon="83.8965605" />
      <trkpt lat="28.5290363" lon="83.896847" />
      <trkpt lat="28.529012" lon="83.8970625" />
      <trkpt lat="28.5289574" lon="83.8973288" />
      <trkpt lat="28.528889" lon="83.8974436" />
      <trkpt lat="28.5287935" lon="83.8976015" />
      <trkpt lat="28.5287014" lon="83.8977636" />
      <trkpt lat="28.528617" lon="83.8978741" />
      <trkpt lat="28.5285526" lon="83.8979779" />
      <trkpt lat="28.5285353" lon="83.8981246" />
      <trkpt lat="28.5284769" lon="83.8983221" />
      <trkpt lat="28.5284282" lon="83.8984233" />
      <trkpt lat="28.5283112" lon="83.8984544" />
      <trkpt lat="28.5282383" lon="83.8984998" />
      <trkpt lat="28.5281585" lon="83.8986756" />
      <trkpt lat="28.5281124" lon="83.8988805" />
      <trkpt lat="28.528064" lon="83.8990835" />
      <trkpt lat="28.5280884" lon="83.899318" />
      <trkpt lat="28.5280573" lon="83.8994382" />
      <trkpt lat="28.5280034" lon="83.8996053" />
      <trkpt lat="28.5279872" lon="83.8997248" />
      <trkpt lat="28.5279251" lon="83.8998912" />
      <trkpt lat="28.5279078" lon="83.9000007" />
      <trkpt lat="28.5278256" lon="83.9000681" />
      <trkpt lat="28.5278042" lon="83.9004572" />
      <trkpt lat="28.5277216" lon="83.9008189" />
      <trkpt lat="28.5276594" lon="83.9010719" />
      <trkpt lat="28.527654" lon="83.9012145" />
      <trkpt lat="28.5276215" lon="83.9012806" />
      <trkpt lat="28.5275834" lon="83.9013406" />
      <trkpt lat="28.527591" lon="83.9014442" />
      <trkpt lat="28.5275718" lon="83.9015776" />
      <trkpt lat="28.5275521" lon="83.901693" />
      <trkpt lat="28.5275132" lon="83.9017781" />
      <trkpt lat="28.5274303" lon="83.9018654" />
      <trkpt lat="28.527382" lon="83.9019335" />
      <trkpt lat="28.5273542" lon="83.9020083" />
      <trkpt lat="28.5273514" lon="83.9021065" />
      <trkpt lat="28.5273479" lon="83.9022097" />
      <trkpt lat="28.5273863" lon="83.9024108" />
      <trkpt lat="28.5274439" lon="83.9025166" />
      <trkpt lat="28.5274482" lon="83.9026359" />
      <trkpt lat="28.5274684" lon="83.9029258" />
      <trkpt lat="28.5274493" lon="83.9031014" />
      <trkpt lat="28.5274544" lon="83.9032067" />
      <trkpt lat="28.527439" lon="83.9033893" />
      <trkpt lat="28.5274155" lon="83.9035041" />
      <trkpt lat="28.5273764" lon="83.9036635" />
      <trkpt lat="28.5273388" lon="83.9038432" />
      <trkpt lat="28.527327" lon="83.9039845" />
      <trkpt lat="28.5273129" lon="83.9041436" />
      <trkpt lat="28.5272988" lon="83.9043153" />
      <trkpt lat="28.5273341" lon="83.9044467" />
      <trkpt lat="28.5273253" lon="83.9045892" />
      <trkpt lat="28.5272704" lon="83.904739" />
      <trkpt lat="28.5272139" lon="83.9048704" />
      <trkpt lat="28.5271491" lon="83.904994" />
      <trkpt lat="28.5270985" lon="83.9051789" />
      <trkpt lat="28.5270537" lon="83.9053425" />
      <trkpt lat="28.5269877" lon="83.9055329" />
      <trkpt lat="28.5269241" lon="83.9056885" />
      <trkpt lat="28.5268322" lon="83.905836" />
      <trkpt lat="28.5267543" lon="83.9059567" />
      <trkpt lat="28.5266719" lon="83.9060962" />
      <trkpt lat="28.5265475" lon="83.9062915" />
      <trkpt lat="28.5264457" lon="83.9065012" />
      <trkpt lat="28.5263656" lon="83.9065951" />
      <trkpt lat="28.5262906" lon="83.9066751" />
      <trkpt lat="28.5261251" lon="83.9068378" />
      <trkpt lat="28.5260368" lon="83.906917" />
      <trkpt lat="28.5259685" lon="83.9069934" />
      <trkpt lat="28.5258113" lon="83.9071407" />
      <trkpt lat="28.5257057" lon="83.9072067" />
      <trkpt lat="28.525655" lon="83.9072898" />
      <trkpt lat="28.525622" lon="83.9073233" />
      <trkpt lat="28.5255596" lon="83.9073461" />
      <trkpt lat="28.5254547" lon="83.9073904" />
      <trkpt lat="28.5253923" lon="83.9074333" />
      <trkpt lat="28.5253463" lon="83.9074856" />
      <trkpt lat="28.5252299" lon="83.907549" />
      <trkpt lat="28.5251908" lon="83.9075956" />
      <trkpt lat="28.5251507" lon="83.9076291" />
      <trkpt lat="28.5250506" lon="83.9076117" />
      <trkpt lat="28.5249375" lon="83.9076935" />
      <trkpt lat="28.5248326" lon="83.9077569" />
      <trkpt lat="28.5247751" lon="83.907765" />
      <trkpt lat="28.5247411" lon="83.9077808" />
      <trkpt lat="28.5247072" lon="83.9078357" />
      <trkpt lat="28.5246262" lon="83.9078766" />
      <trkpt lat="28.5245411" lon="83.907904" />
      <trkpt lat="28.5244398" lon="83.9079559" />
      <trkpt lat="28.5243434" lon="83.9079847" />
      <trkpt lat="28.5242961" lon="83.9079929" />
      <trkpt lat="28.524225" lon="83.9079773" />
      <trkpt lat="28.5241067" lon="83.9079711" />
      <trkpt lat="28.5239924" lon="83.9080328" />
      <trkpt lat="28.5237874" lon="83.9080583" />
      <trkpt lat="28.5237025" lon="83.9080945" />
      <trkpt lat="28.5236378" lon="83.9080717" />
      <trkpt lat="28.52356" lon="83.9080985" />
      <trkpt lat="28.5235093" lon="83.9080583" />
      <trkpt lat="28.5234669" lon="83.9080931" />
      <trkpt lat="28.5233986" lon="83.9080944" />
      <trkpt lat="28.5233656" lon="83.9081696" />
      <trkpt lat="28.5233031" lon="83.9082339" />
      <trkpt lat="28.5232312" lon="83.9083185" />
      <trkpt lat="28.5231847" lon="83.9083462" />
      <trkpt lat="28.5231664" lon="83.9083103" />
      <trkpt lat="28.5231338" lon="83.9082801" />
    </trkseg>
  </trk>
</gpx>